$GPGGA,143000.00,2759.6640,N,08037.4040,W,1,09,0.9,6.4,M,-25.7,M,,*56
$GPGSA,A,3,01,03,06,11,14,17,19,22,28,,,,1.7,0.9,1.4*3D
$GPGSV,3,1,09,01,74,042,44,03,58,301,41,06,45,118,39,11,39,225,38*7E
$GPGSV,3,2,09,14,31,072,37,17,26,289,35,19,21,155,34,22,18,331,33*75
$GPGSV,3,3,09,28,12,201,31*48
$GPRMC,143000.00,A,2759.6640,N,08037.4040,W,0.03,0.00,170826,,,A*42
$GPGGA,143001.00,2759.6640,N,08037.4040,W,1,09,0.9,6.4,M,-25.7,M,,*57
$GPGSA,A,3,01,03,06,11,14,17,19,22,28,,,,1.7,0.9,1.4*3D
$GPGSV,3,1,09,01,74,042,44,03,58,301,41,06,45,118,39,11,39,225,38*7E
$GPGSV,3,2,09,14,31,072,37,17,26,289,35,19,21,155,34,22,18,331,33*75
$GPGSV,3,3,09,28,12,201,31*48
$GPRMC,143001.00,A,2759.6640,N,08037.4040,W,0.03,0.00,170826,,,A*43
$GPGGA,143002.00,2759.6640,N,08037.4040,W,1,09,0.9,6.4,M,-25.7,M,,*54
$GPGSA,A,3,01,03,06,11,14,17,19,22,28,,,,1.7,0.9,1.4*3D
$GPGSV,3,1,09,01,74,042,44,03,58,301,41,06,45,118,39,11,39,225,38*7E
$GPGSV,3,2,09,14,31,072,37,17,26,289,35,19,21,155,34,22,18,331,33*75
$GPGSV,3,3,09,28,12,201,31*48
$GPRMC,143002.00,A,2759.6640,N,08037.4040,W,0.03,0.00,170826,,,A*40
$GPGGA,143003.00,2759.6640,N,08037.4040,W,1,09,0.9,6.4,M,-25.7,M,,*55
$GPGSA,A,3,01,03,06,11,14,17,19,22,28,,,,1.7,0.9,1.4*3D
$GPGSV,3,1,09,01,74,042,44,03,58,301,41,06,45,118,39,11,39,225,38*7E
$GPGSV,3,2,09,14,31,072,37,17,26,289,35,19,21,155,34,22,18,331,33*75
$GPGSV,3,3,09,28,12,201,31*48
$GPRMC,143003.00,A,2759.6640,N,08037.4040,W,0.03,0.00,170826,,,A*41
$GPGGA,143004.00,2759.6640,N,08037.4040,W,1,09,0.9,6.4,M,-25.7,M,,*52
$GPGSA,A,3,01,03,06,11,14,17,19,22,28,,,,1.7,0.9,1.4*3D
$GPGSV,3,1,09,01,74,042,44,03,58,301,41,06,45,118,39,11,39,225,38*7E
$GPGSV,3,2,09,14,31,072,37,17,26,289,35,19,21,155,34,22,18,331,33*75
$GPGSV,3,3,09,28,12,201,31*48
$GPRMC,143004.00,A,2759.6640,N,08037.4040,W,0.03,0.00,170826,,,A*46
$GPGGA,143005.00,2759.6640,N,08037.4040,W,1,09,0.9,6.4,M,-25.7,M,,*53
$GPGSA,A,3,01,03,06,11,14,17,19,22,28,,,,1.7,0.9,1.4*3D
$GPGSV,3,1,09,01,74,042,44,03,58,301,41,06,45,118,39,11,39,225,38*7E
$GPGSV,3,2,09,14,31,072,37,17,26,289,35,19,21,155,34,22,18,331,33*75
$GPGSV,3,3,09,28,12,201,31*48
$GPRMC,143005.00,A,2759.6640,N,08037.4040,W,0.03,0.00,170826,,,A*47
$GPGGA,143006.00,2759.6640,N,08037.4040,W,1,09,0.9,6.4,M,-25.7,M,,*50
$GPGSA,A,3,01,03,06,11,14,17,19,22,28,,,,1.7,0.9,1.4*3D
$GPGSV,3,1,09,01,74,042,44,03,58,301,41,06,45,118,39,11,39,225,38*7E
$GPGSV,3,2,09,14,31,072,37,17,26,289,35,19,21,155,34,22,18,331,33*75
$GPGSV,3,3,09,28,12,201,31*48
$GPRMC,143006.00,A,2759.6640,N,08037.4040,W,0.03,0.00,170826,,,A*44
$GPGGA,143007.00,2759.6640,N,08037.4040,W,1,09,0.9,6.4,M,-25.7,M,,*51
$GPGSA,A,3,01,03,06,11,14,17,19,22,28,,,,1.7,0.9,1.4*3D
$GPGSV,3,1,09,01,74,042,44,03,58,301,41,06,45,118,39,11,39,225,38*7E
$GPGSV,3,2,09,14,31,072,37,17,26,289,35,19,21,155,34,22,18,331,33*75
$GPGSV,3,3,09,28,12,201,31*48
$GPRMC,143007.00,A,2759.6640,N,08037.4040,W,0.03,0.00,170826,,,A*45
$GPGGA,143008.00,2759.6640,N,08037.4040,W,1,09,0.9,6.4,M,-25.7,M,,*5E
$GPGSA,A,3,01,03,06,11,14,17,19,22,28,,,,1.7,0.9,1.4*3D
$GPGSV,3,1,09,01,74,042,44,03,58,301,41,06,45,118,39,11,39,225,38*7E
$GPGSV,3,2,09,14,31,072,37,17,26,289,35,19,21,155,34,22,18,331,33*75
$GPGSV,3,3,09,28,12,201,31*48
$GPRMC,143008.00,A,2759.6640,N,08037.4040,W,0.03,0.00,170826,,,A*4A
$GPGGA,143009.00,2759.6640,N,08037.4040,W,1,09,0.9,6.4,M,-25.7,M,,*5F
$GPGSA,A,3,01,03,06,11,14,17,19,22,28,,,,1.7,0.9,1.4*3D
$GPGSV,3,1,09,01,74,042,44,03,58,301,41,06,45,118,39,11,39,225,38*7E
$GPGSV,3,2,09,14,31,072,37,17,26,289,35,19,21,155,34,22,18,331,33*75
$GPGSV,3,3,09,28,12,201,31*48
$GPRMC,143009.00,A,2759.6640,N,08037.4040,W,0.03,0.00,170826,,,A*4B
$GPGGA,143010.00,2759.6640,N,08037.4040,W,1,09,0.9,6.4,M,-25.7,M,,*57
$GPGSA,A,3,01,03,06,11,14,17,19,22,28,,,,1.7,0.9,1.4*3D
$GPGSV,3,1,09,01,74,042,44,03,58,301,41,06,45,118,39,11,39,225,38*7E
$GPGSV,3,2,09,14,31,072,37,17,26,289,35,19,21,155,34,22,18,331,33*75
$GPGSV,3,3,09,28,12,201,31*48
$GPRMC,143010.00,A,2759.6640,N,08037.4040,W,0.03,0.00,170826,,,A*43
$GPGGA,143011.00,2759.6640,N,08037.4040,W,1,09,0.9,6.4,M,-25.7,M,,*56
$GPGSA,A,3,01,03,06,11,14,17,19,22,28,,,,1.7,0.9,1.4*3D
$GPGSV,3,1,09,01,74,042,44,03,58,301,41,06,45,118,39,11,39,225,38*7E
$GPGSV,3,2,09,14,31,072,37,17,26,289,35,19,21,155,34,22,18,331,33*75
$GPGSV,3,3,09,28,12,201,31*48
$GPRMC,143011.00,A,2759.6640,N,08037.4040,W,0.03,0.00,170826,,,A*42
$GPGGA,143012.00,2759.6640,N,08037.4040,W,1,09,0.9,6.4,M,-25.7,M,,*55
$GPGSA,A,3,01,03,06,11,14,17,19,22,28,,,,1.7,0.9,1.4*3D
$GPGSV,3,1,09,01,74,042,44,03,58,301,41,06,45,118,39,11,39,225,38*7E
$GPGSV,3,2,09,14,31,072,37,17,26,289,35,19,21,155,34,22,18,331,33*75
$GPGSV,3,3,09,28,12,201,31*48
$GPRMC,143012.00,A,2759.6640,N,08037.4040,W,0.03,0.00,170826,,,A*41
$GPGGA,143013.00,2759.6640,N,08037.4040,W,1,09,0.9,6.4,M,-25.7,M,,*54
$GPGSA,A,3,01,03,06,11,14,17,19,22,28,,,,1.7,0.9,1.4*3D
$GPGSV,3,1,09,01,74,042,44,03,58,301,41,06,45,118,39,11,39,225,38*7E
$GPGSV,3,2,09,14,31,072,37,17,26,289,35,19,21,155,34,22,18,331,33*75
$GPGSV,3,3,09,28,12,201,31*48
$GPRMC,143013.00,A,2759.6640,N,08037.4040,W,0.03,0.00,170826,,,A*40
$GPGGA,143014.00,2759.6640,N,08037.4040,W,1,09,0.9,6.4,M,-25.7,M,,*53
$GPGSA,A,3,01,03,06,11,14,17,19,22,28,,,,1.7,0.9,1.4*3D
$GPGSV,3,1,09,01,74,042,44,03,58,301,41,06,45,118,39,11,39,225,38*7E
$GPGSV,3,2,09,14,31,072,37,17,26,289,35,19,21,155,34,22,18,331,33*75
$GPGSV,3,3,09,28,12,201,31*48
$GPRMC,143014.00,A,2759.6640,N,08037.4040,W,0.03,0.00,170826,,,A*47
$GPGGA,143015.00,2759.6640,N,08037.4040,W,1,09,0.9,6.4,M,-25.7,M,,*52
$GPGSA,A,3,01,03,06,11,14,17,19,22,28,,,,1.7,0.9,1.4*3D
$GPGSV,3,1,09,01,74,042,44,03,58,301,41,06,45,118,39,11,39,225,38*7E
$GPGSV,3,2,09,14,31,072,37,17,26,289,35,19,21,155,34,22,18,331,33*75
$GPGSV,3,3,09,28,12,201,31*48
$GPRMC,143015.00,A,2759.6640,N,08037.4040,W,0.03,0.00,170826,,,A*46
$GPGGA,143016.00,2759.6640,N,08037.4040,W,1,09,0.9,6.4,M,-25.7,M,,*51
$GPGSA,A,3,01,03,06,11,14,17,19,22,28,,,,1.7,0.9,1.4*3D
$GPGSV,3,1,09,01,74,042,44,03,58,301,41,06,45,118,39,11,39,225,38*7E
$GPGSV,3,2,09,14,31,072,37,17,26,289,35,19,21,155,34,22,18,331,33*75
$GPGSV,3,3,09,28,12,201,31*48
$GPRMC,143016.00,A,2759.6640,N,08037.4040,W,0.03,0.00,170826,,,A*45
$GPGGA,143017.00,2759.6640,N,08037.4040,W,1,09,0.9,6.4,M,-25.7,M,,*50
$GPGSA,A,3,01,03,06,11,14,17,19,22,28,,,,1.7,0.9,1.4*3D
$GPGSV,3,1,09,01,74,042,44,03,58,301,41,06,45,118,39,11,39,225,38*7E
$GPGSV,3,2,09,14,31,072,37,17,26,289,35,19,21,155,34,22,18,331,33*75
$GPGSV,3,3,09,28,12,201,31*48
$GPRMC,143017.00,A,2759.6640,N,08037.4040,W,0.03,0.00,170826,,,A*44
$GPGGA,143018.00,2759.6640,N,08037.4040,W,1,09,0.9,6.4,M,-25.7,M,,*5F
$GPGSA,A,3,01,03,06,11,14,17,19,22,28,,,,1.7,0.9,1.4*3D
$GPGSV,3,1,09,01,74,042,44,03,58,301,41,06,45,118,39,11,39,225,38*7E
$GPGSV,3,2,09,14,31,072,37,17,26,289,35,19,21,155,34,22,18,331,33*75
$GPGSV,3,3,09,28,12,201,31*48
$GPRMC,143018.00,A,2759.6640,N,08037.4040,W,0.03,0.00,170826,,,A*4B
$GPGGA,143019.00,2759.6640,N,08037.4040,W,1,09,0.9,6.4,M,-25.7,M,,*5E
$GPGSA,A,3,01,03,06,11,14,17,19,22,28,,,,1.7,0.9,1.4*3D
$GPGSV,3,1,09,01,74,042,44,03,58,301,41,06,45,118,39,11,39,225,38*7E
$GPGSV,3,2,09,14,31,072,37,17,26,289,35,19,21,155,34,22,18,331,33*75
$GPGSV,3,3,09,28,12,201,31*48
$GPRMC,143019.00,A,2759.6640,N,08037.4040,W,0.03,0.00,170826,,,A*4A
$GPGGA,143020.00,2759.6640,N,08037.4040,W,1,09,0.9,6.4,M,-25.7,M,,*54
$GPGSA,A,3,01,03,06,11,14,17,19,22,28,,,,1.7,0.9,1.4*3D
$GPGSV,3,1,09,01,74,042,44,03,58,301,41,06,45,118,39,11,39,225,38*7E
$GPGSV,3,2,09,14,31,072,37,17,26,289,35,19,21,155,34,22,18,331,33*75
$GPGSV,3,3,09,28,12,201,31*48
$GPRMC,143020.00,A,2759.6640,N,08037.4040,W,0.03,0.00,170826,,,A*40
$GPGGA,143021.00,2759.6640,N,08037.4040,W,1,09,0.9,6.4,M,-25.7,M,,*55
$GPGSA,A,3,01,03,06,11,14,17,19,22,28,,,,1.7,0.9,1.4*3D
$GPGSV,3,1,09,01,74,042,44,03,58,301,41,06,45,118,39,11,39,225,38*7E
$GPGSV,3,2,09,14,31,072,37,17,26,289,35,19,21,155,34,22,18,331,33*75
$GPGSV,3,3,09,28,12,201,31*48
$GPRMC,143021.00,A,2759.6640,N,08037.4040,W,0.03,0.00,170826,,,A*41
$GPGGA,143022.00,2759.6640,N,08037.4040,W,1,09,0.9,6.4,M,-25.7,M,,*56
$GPGSA,A,3,01,03,06,11,14,17,19,22,28,,,,1.7,0.9,1.4*3D
$GPGSV,3,1,09,01,74,042,44,03,58,301,41,06,45,118,39,11,39,225,38*7E
$GPGSV,3,2,09,14,31,072,37,17,26,289,35,19,21,155,34,22,18,331,33*75
$GPGSV,3,3,09,28,12,201,31*48
$GPRMC,143022.00,A,2759.6640,N,08037.4040,W,0.03,0.00,170826,,,A*42
$GPGGA,143023.00,2759.6640,N,08037.4040,W,1,09,0.9,6.4,M,-25.7,M,,*57
$GPGSA,A,3,01,03,06,11,14,17,19,22,28,,,,1.7,0.9,1.4*3D
$GPGSV,3,1,09,01,74,042,44,03,58,301,41,06,45,118,39,11,39,225,38*7E
$GPGSV,3,2,09,14,31,072,37,17,26,289,35,19,21,155,34,22,18,331,33*75
$GPGSV,3,3,09,28,12,201,31*48
$GPRMC,143023.00,A,2759.6640,N,08037.4040,W,0.03,0.00,170826,,,A*43
$GPGGA,143024.00,2759.6640,N,08037.4040,W,1,09,0.9,6.4,M,-25.7,M,,*50
$GPGSA,A,3,01,03,06,11,14,17,19,22,28,,,,1.7,0.9,1.4*3D
$GPGSV,3,1,09,01,74,042,44,03,58,301,41,06,45,118,39,11,39,225,38*7E
$GPGSV,3,2,09,14,31,072,37,17,26,289,35,19,21,155,34,22,18,331,33*75
$GPGSV,3,3,09,28,12,201,31*48
$GPRMC,143024.00,A,2759.6640,N,08037.4040,W,0.03,0.00,170826,,,A*44
$GPGGA,143025.00,2759.6640,N,08037.4040,W,1,09,0.9,6.4,M,-25.7,M,,*51
$GPGSA,A,3,01,03,06,11,14,17,19,22,28,,,,1.7,0.9,1.4*3D
$GPGSV,3,1,09,01,74,042,44,03,58,301,41,06,45,118,39,11,39,225,38*7E
$GPGSV,3,2,09,14,31,072,37,17,26,289,35,19,21,155,34,22,18,331,33*75
$GPGSV,3,3,09,28,12,201,31*48
$GPRMC,143025.00,A,2759.6640,N,08037.4040,W,0.03,0.00,170826,,,A*45
$GPGGA,143026.00,2759.6640,N,08037.4040,W,1,09,0.9,6.4,M,-25.7,M,,*52
$GPGSA,A,3,01,03,06,11,14,17,19,22,28,,,,1.7,0.9,1.4*3D
$GPGSV,3,1,09,01,74,042,44,03,58,301,41,06,45,118,39,11,39,225,38*7E
$GPGSV,3,2,09,14,31,072,37,17,26,289,35,19,21,155,34,22,18,331,33*75
$GPGSV,3,3,09,28,12,201,31*48
$GPRMC,143026.00,A,2759.6640,N,08037.4040,W,0.03,0.00,170826,,,A*46
$GPGGA,143027.00,2759.6640,N,08037.4040,W,1,09,0.9,6.4,M,-25.7,M,,*53
$GPGSA,A,3,01,03,06,11,14,17,19,22,28,,,,1.7,0.9,1.4*3D
$GPGSV,3,1,09,01,74,042,44,03,58,301,41,06,45,118,39,11,39,225,38*7E
$GPGSV,3,2,09,14,31,072,37,17,26,289,35,19,21,155,34,22,18,331,33*75
$GPGSV,3,3,09,28,12,201,31*48
$GPRMC,143027.00,A,2759.6640,N,08037.4040,W,0.03,0.00,170826,,,A*47
$GPGGA,143028.00,2759.6640,N,08037.4040,W,1,09,0.9,6.4,M,-25.7,M,,*5C
$GPGSA,A,3,01,03,06,11,14,17,19,22,28,,,,1.7,0.9,1.4*3D
$GPGSV,3,1,09,01,74,042,44,03,58,301,41,06,45,118,39,11,39,225,38*7E
$GPGSV,3,2,09,14,31,072,37,17,26,289,35,19,21,155,34,22,18,331,33*75
$GPGSV,3,3,09,28,12,201,31*48
$GPRMC,143028.00,A,2759.6640,N,08037.4040,W,0.03,0.00,170826,,,A*48
$GPGGA,143029.00,2759.6640,N,08037.4040,W,1,09,0.9,6.4,M,-25.7,M,,*5D
$GPGSA,A,3,01,03,06,11,14,17,19,22,28,,,,1.7,0.9,1.4*3D
$GPGSV,3,1,09,01,74,042,44,03,58,301,41,06,45,118,39,11,39,225,38*7E
$GPGSV,3,2,09,14,31,072,37,17,26,289,35,19,21,155,34,22,18,331,33*75
$GPGSV,3,3,09,28,12,201,31*48
$GPRMC,143029.00,A,2759.6640,N,08037.4040,W,0.03,0.00,170826,,,A*49
$GPGGA,143030.00,2759.6640,N,08037.4040,W,1,09,0.9,6.4,M,-25.7,M,,*55
$GPGSA,A,3,01,03,06,11,14,17,19,22,28,,,,1.7,0.9,1.4*3D
$GPGSV,3,1,09,01,74,042,44,03,58,301,41,06,45,118,39,11,39,225,38*7E
$GPGSV,3,2,09,14,31,072,37,17,26,289,35,19,21,155,34,22,18,331,33*75
$GPGSV,3,3,09,28,12,201,31*48
$GPRMC,143030.00,A,2759.6640,N,08037.4040,W,0.03,0.00,170826,,,A*41
$GPGGA,143031.00,2759.6640,N,08037.4040,W,1,09,0.9,6.4,M,-25.7,M,,*54
$GPGSA,A,3,01,03,06,11,14,17,19,22,28,,,,1.7,0.9,1.4*3D
$GPGSV,3,1,09,01,74,042,44,03,58,301,41,06,45,118,39,11,39,225,38*7E
$GPGSV,3,2,09,14,31,072,37,17,26,289,35,19,21,155,34,22,18,331,33*75
$GPGSV,3,3,09,28,12,201,31*48
$GPRMC,143031.00,A,2759.6640,N,08037.4040,W,0.03,0.00,170826,,,A*40
$GPGGA,143032.00,2759.6640,N,08037.4040,W,1,09,0.9,6.4,M,-25.7,M,,*57
$GPGSA,A,3,01,03,06,11,14,17,19,22,28,,,,1.7,0.9,1.4*3D
$GPGSV,3,1,09,01,74,042,44,03,58,301,41,06,45,118,39,11,39,225,38*7E
$GPGSV,3,2,09,14,31,072,37,17,26,289,35,19,21,155,34,22,18,331,33*75
$GPGSV,3,3,09,28,12,201,31*48
$GPRMC,143032.00,A,2759.6640,N,08037.4040,W,0.03,0.00,170826,,,A*43
$GPGGA,143033.00,2759.6640,N,08037.4040,W,1,09,0.9,6.4,M,-25.7,M,,*56
$GPGSA,A,3,01,03,06,11,14,17,19,22,28,,,,1.7,0.9,1.4*3D
$GPGSV,3,1,09,01,74,042,44,03,58,301,41,06,45,118,39,11,39,225,38*7E
$GPGSV,3,2,09,14,31,072,37,17,26,289,35,19,21,155,34,22,18,331,33*75
$GPGSV,3,3,09,28,12,201,31*48
$GPRMC,143033.00,A,2759.6640,N,08037.4040,W,0.03,0.00,170826,,,A*42
$GPGGA,143034.00,2759.6640,N,08037.4040,W,1,09,0.9,6.4,M,-25.7,M,,*51
$GPGSA,A,3,01,03,06,11,14,17,19,22,28,,,,1.7,0.9,1.4*3D
$GPGSV,3,1,09,01,74,042,44,03,58,301,41,06,45,118,39,11,39,225,38*7E
$GPGSV,3,2,09,14,31,072,37,17,26,289,35,19,21,155,34,22,18,331,33*75
$GPGSV,3,3,09,28,12,201,31*48
$GPRMC,143034.00,A,2759.6640,N,08037.4040,W,0.03,0.00,170826,,,A*45
$GPGGA,143035.00,2759.6640,N,08037.4040,W,1,09,0.9,6.4,M,-25.7,M,,*50
$GPGSA,A,3,01,03,06,11,14,17,19,22,28,,,,1.7,0.9,1.4*3D
$GPGSV,3,1,09,01,74,042,44,03,58,301,41,06,45,118,39,11,39,225,38*7E
$GPGSV,3,2,09,14,31,072,37,17,26,289,35,19,21,155,34,22,18,331,33*75
$GPGSV,3,3,09,28,12,201,31*48
$GPRMC,143035.00,A,2759.6640,N,08037.4040,W,0.03,0.00,170826,,,A*44
$GPGGA,143036.00,2759.6640,N,08037.4040,W,1,09,0.9,6.4,M,-25.7,M,,*53
$GPGSA,A,3,01,03,06,11,14,17,19,22,28,,,,1.7,0.9,1.4*3D
$GPGSV,3,1,09,01,74,042,44,03,58,301,41,06,45,118,39,11,39,225,38*7E
$GPGSV,3,2,09,14,31,072,37,17,26,289,35,19,21,155,34,22,18,331,33*75
$GPGSV,3,3,09,28,12,201,31*48
$GPRMC,143036.00,A,2759.6640,N,08037.4040,W,0.03,0.00,170826,,,A*47
$GPGGA,143037.00,2759.6640,N,08037.4040,W,1,09,0.9,6.4,M,-25.7,M,,*52
$GPGSA,A,3,01,03,06,11,14,17,19,22,28,,,,1.7,0.9,1.4*3D
$GPGSV,3,1,09,01,74,042,44,03,58,301,41,06,45,118,39,11,39,225,38*7E
$GPGSV,3,2,09,14,31,072,37,17,26,289,35,19,21,155,34,22,18,331,33*75
$GPGSV,3,3,09,28,12,201,31*48
$GPRMC,143037.00,A,2759.6640,N,08037.4040,W,0.03,0.00,170826,,,A*46
$GPGGA,143038.00,2759.6640,N,08037.4040,W,1,09,0.9,6.4,M,-25.7,M,,*5D
$GPGSA,A,3,01,03,06,11,14,17,19,22,28,,,,1.7,0.9,1.4*3D
$GPGSV,3,1,09,01,74,042,44,03,58,301,41,06,45,118,39,11,39,225,38*7E
$GPGSV,3,2,09,14,31,072,37,17,26,289,35,19,21,155,34,22,18,331,33*75
$GPGSV,3,3,09,28,12,201,31*48
$GPRMC,143038.00,A,2759.6640,N,08037.4040,W,0.03,0.00,170826,,,A*49
$GPGGA,143039.00,2759.6640,N,08037.4040,W,1,09,0.9,6.4,M,-25.7,M,,*5C
$GPGSA,A,3,01,03,06,11,14,17,19,22,28,,,,1.7,0.9,1.4*3D
$GPGSV,3,1,09,01,74,042,44,03,58,301,41,06,45,118,39,11,39,225,38*7E
$GPGSV,3,2,09,14,31,072,37,17,26,289,35,19,21,155,34,22,18,331,33*75
$GPGSV,3,3,09,28,12,201,31*48
$GPRMC,143039.00,A,2759.6640,N,08037.4040,W,0.03,0.00,170826,,,A*48
$GPGGA,143040.00,2759.6640,N,08037.4040,W,1,09,0.9,6.4,M,-25.7,M,,*52
$GPGSA,A,3,01,03,06,11,14,17,19,22,28,,,,1.7,0.9,1.4*3D
$GPGSV,3,1,09,01,74,042,44,03,58,301,41,06,45,118,39,11,39,225,38*7E
$GPGSV,3,2,09,14,31,072,37,17,26,289,35,19,21,155,34,22,18,331,33*75
$GPGSV,3,3,09,28,12,201,31*48
$GPRMC,143040.00,A,2759.6640,N,08037.4040,W,0.03,0.00,170826,,,A*46
$GPGGA,143041.00,2759.6640,N,08037.4040,W,1,09,0.9,6.4,M,-25.7,M,,*53
$GPGSA,A,3,01,03,06,11,14,17,19,22,28,,,,1.7,0.9,1.4*3D
$GPGSV,3,1,09,01,74,042,44,03,58,301,41,06,45,118,39,11,39,225,38*7E
$GPGSV,3,2,09,14,31,072,37,17,26,289,35,19,21,155,34,22,18,331,33*75
$GPGSV,3,3,09,28,12,201,31*48
$GPRMC,143041.00,A,2759.6640,N,08037.4040,W,0.03,0.00,170826,,,A*47
$GPGGA,143042.00,2759.6640,N,08037.4040,W,1,09,0.9,6.4,M,-25.7,M,,*50
$GPGSA,A,3,01,03,06,11,14,17,19,22,28,,,,1.7,0.9,1.4*3D
$GPGSV,3,1,09,01,74,042,44,03,58,301,41,06,45,118,39,11,39,225,38*7E
$GPGSV,3,2,09,14,31,072,37,17,26,289,35,19,21,155,34,22,18,331,33*75
$GPGSV,3,3,09,28,12,201,31*48
$GPRMC,143042.00,A,2759.6640,N,08037.4040,W,0.03,0.00,170826,,,A*44
$GPGGA,143043.00,2759.6640,N,08037.4040,W,1,09,0.9,6.4,M,-25.7,M,,*51
$GPGSA,A,3,01,03,06,11,14,17,19,22,28,,,,1.7,0.9,1.4*3D
$GPGSV,3,1,09,01,74,042,44,03,58,301,41,06,45,118,39,11,39,225,38*7E
$GPGSV,3,2,09,14,31,072,37,17,26,289,35,19,21,155,34,22,18,331,33*75
$GPGSV,3,3,09,28,12,201,31*48
$GPRMC,143043.00,A,2759.6640,N,08037.4040,W,0.03,0.00,170826,,,A*45
$GPGGA,143044.00,2759.6640,N,08037.4040,W,1,09,0.9,6.4,M,-25.7,M,,*56
$GPGSA,A,3,01,03,06,11,14,17,19,22,28,,,,1.7,0.9,1.4*3D
$GPGSV,3,1,09,01,74,042,44,03,58,301,41,06,45,118,39,11,39,225,38*7E
$GPGSV,3,2,09,14,31,072,37,17,26,289,35,19,21,155,34,22,18,331,33*75
$GPGSV,3,3,09,28,12,201,31*48
$GPRMC,143044.00,A,2759.6640,N,08037.4040,W,0.03,0.00,170826,,,A*42
$GPGGA,143045.00,2759.6640,N,08037.4040,W,1,09,0.9,6.4,M,-25.7,M,,*57
$GPGSA,A,3,01,03,06,11,14,17,19,22,28,,,,1.7,0.9,1.4*3D
$GPGSV,3,1,09,01,74,042,44,03,58,301,41,06,45,118,39,11,39,225,38*7E
$GPGSV,3,2,09,14,31,072,37,17,26,289,35,19,21,155,34,22,18,331,33*75
$GPGSV,3,3,09,28,12,201,31*48
$GPRMC,143045.00,A,2759.6640,N,08037.4040,W,0.03,0.00,170826,,,A*43
$GPGGA,143046.00,2759.6640,N,08037.4040,W,1,09,0.9,6.4,M,-25.7,M,,*54
$GPGSA,A,3,01,03,06,11,14,17,19,22,28,,,,1.7,0.9,1.4*3D
$GPGSV,3,1,09,01,74,042,44,03,58,301,41,06,45,118,39,11,39,225,38*7E
$GPGSV,3,2,09,14,31,072,37,17,26,289,35,19,21,155,34,22,18,331,33*75
$GPGSV,3,3,09,28,12,201,31*48
$GPRMC,143046.00,A,2759.6640,N,08037.4040,W,0.03,0.00,170826,,,A*40
$GPGGA,143047.00,2759.6640,N,08037.4040,W,1,09,0.9,6.4,M,-25.7,M,,*55
$GPGSA,A,3,01,03,06,11,14,17,19,22,28,,,,1.7,0.9,1.4*3D
$GPGSV,3,1,09,01,74,042,44,03,58,301,41,06,45,118,39,11,39,225,38*7E
$GPGSV,3,2,09,14,31,072,37,17,26,289,35,19,21,155,34,22,18,331,33*75
$GPGSV,3,3,09,28,12,201,31*48
$GPRMC,143047.00,A,2759.6640,N,08037.4040,W,0.03,0.00,170826,,,A*41
$GPGGA,143048.00,2759.6640,N,08037.4040,W,1,09,0.9,6.4,M,-25.7,M,,*5A
$GPGSA,A,3,01,03,06,11,14,17,19,22,28,,,,1.7,0.9,1.4*3D
$GPGSV,3,1,09,01,74,042,44,03,58,301,41,06,45,118,39,11,39,225,38*7E
$GPGSV,3,2,09,14,31,072,37,17,26,289,35,19,21,155,34,22,18,331,33*75
$GPGSV,3,3,09,28,12,201,31*48
$GPRMC,143048.00,A,2759.6640,N,08037.4040,W,0.03,0.00,170826,,,A*4E
$GPGGA,143049.00,2759.6640,N,08037.4040,W,1,09,0.9,6.4,M,-25.7,M,,*5B
$GPGSA,A,3,01,03,06,11,14,17,19,22,28,,,,1.7,0.9,1.4*3D
$GPGSV,3,1,09,01,74,042,44,03,58,301,41,06,45,118,39,11,39,225,38*7E
$GPGSV,3,2,09,14,31,072,37,17,26,289,35,19,21,155,34,22,18,331,33*75
$GPGSV,3,3,09,28,12,201,31*48
$GPRMC,143049.00,A,2759.6640,N,08037.4040,W,0.03,0.00,170826,,,A*4F
$GPGGA,143050.00,2759.6640,N,08037.4040,W,1,09,0.9,6.4,M,-25.7,M,,*53
$GPGSA,A,3,01,03,06,11,14,17,19,22,28,,,,1.7,0.9,1.4*3D
$GPGSV,3,1,09,01,74,042,44,03,58,301,41,06,45,118,39,11,39,225,38*7E
$GPGSV,3,2,09,14,31,072,37,17,26,289,35,19,21,155,34,22,18,331,33*75
$GPGSV,3,3,09,28,12,201,31*48
$GPRMC,143050.00,A,2759.6640,N,08037.4040,W,0.03,0.00,170826,,,A*47
$GPGGA,143051.00,2759.6640,N,08037.4040,W,1,09,0.9,6.4,M,-25.7,M,,*52
$GPGSA,A,3,01,03,06,11,14,17,19,22,28,,,,1.7,0.9,1.4*3D
$GPGSV,3,1,09,01,74,042,44,03,58,301,41,06,45,118,39,11,39,225,38*7E
$GPGSV,3,2,09,14,31,072,37,17,26,289,35,19,21,155,34,22,18,331,33*75
$GPGSV,3,3,09,28,12,201,31*48
$GPRMC,143051.00,A,2759.6640,N,08037.4040,W,0.03,0.00,170826,,,A*46
$GPGGA,143052.00,2759.6640,N,08037.4040,W,1,09,0.9,6.4,M,-25.7,M,,*51
$GPGSA,A,3,01,03,06,11,14,17,19,22,28,,,,1.7,0.9,1.4*3D
$GPGSV,3,1,09,01,74,042,44,03,58,301,41,06,45,118,39,11,39,225,38*7E
$GPGSV,3,2,09,14,31,072,37,17,26,289,35,19,21,155,34,22,18,331,33*75
$GPGSV,3,3,09,28,12,201,31*48
$GPRMC,143052.00,A,2759.6640,N,08037.4040,W,0.03,0.00,170826,,,A*45
$GPGGA,143053.00,2759.6640,N,08037.4040,W,1,09,0.9,6.4,M,-25.7,M,,*50
$GPGSA,A,3,01,03,06,11,14,17,19,22,28,,,,1.7,0.9,1.4*3D
$GPGSV,3,1,09,01,74,042,44,03,58,301,41,06,45,118,39,11,39,225,38*7E
$GPGSV,3,2,09,14,31,072,37,17,26,289,35,19,21,155,34,22,18,331,33*75
$GPGSV,3,3,09,28,12,201,31*48
$GPRMC,143053.00,A,2759.6640,N,08037.4040,W,0.03,0.00,170826,,,A*44
$GPGGA,143054.00,2759.6640,N,08037.4040,W,1,09,0.9,6.4,M,-25.7,M,,*57
$GPGSA,A,3,01,03,06,11,14,17,19,22,28,,,,1.7,0.9,1.4*3D
$GPGSV,3,1,09,01,74,042,44,03,58,301,41,06,45,118,39,11,39,225,38*7E
$GPGSV,3,2,09,14,31,072,37,17,26,289,35,19,21,155,34,22,18,331,33*75
$GPGSV,3,3,09,28,12,201,31*48
$GPRMC,143054.00,A,2759.6640,N,08037.4040,W,0.03,0.00,170826,,,A*43
$GPGGA,143055.00,2759.6640,N,08037.4040,W,1,09,0.9,6.4,M,-25.7,M,,*56
$GPGSA,A,3,01,03,06,11,14,17,19,22,28,,,,1.7,0.9,1.4*3D
$GPGSV,3,1,09,01,74,042,44,03,58,301,41,06,45,118,39,11,39,225,38*7E
$GPGSV,3,2,09,14,31,072,37,17,26,289,35,19,21,155,34,22,18,331,33*75
$GPGSV,3,3,09,28,12,201,31*48
$GPRMC,143055.00,A,2759.6640,N,08037.4040,W,0.03,0.00,170826,,,A*42
$GPGGA,143056.00,2759.6640,N,08037.4040,W,1,09,0.9,6.4,M,-25.7,M,,*55
$GPGSA,A,3,01,03,06,11,14,17,19,22,28,,,,1.7,0.9,1.4*3D
$GPGSV,3,1,09,01,74,042,44,03,58,301,41,06,45,118,39,11,39,225,38*7E
$GPGSV,3,2,09,14,31,072,37,17,26,289,35,19,21,155,34,22,18,331,33*75
$GPGSV,3,3,09,28,12,201,31*48
$GPRMC,143056.00,A,2759.6640,N,08037.4040,W,0.03,0.00,170826,,,A*41
$GPGGA,143057.00,2759.6640,N,08037.4040,W,1,09,0.9,6.4,M,-25.7,M,,*54
$GPGSA,A,3,01,03,06,11,14,17,19,22,28,,,,1.7,0.9,1.4*3D
$GPGSV,3,1,09,01,74,042,44,03,58,301,41,06,45,118,39,11,39,225,38*7E
$GPGSV,3,2,09,14,31,072,37,17,26,289,35,19,21,155,34,22,18,331,33*75
$GPGSV,3,3,09,28,12,201,31*48
$GPRMC,143057.00,A,2759.6640,N,08037.4040,W,0.03,0.00,170826,,,A*40
$GPGGA,143058.00,2759.6640,N,08037.4040,W,1,09,0.9,6.4,M,-25.7,M,,*5B
$GPGSA,A,3,01,03,06,11,14,17,19,22,28,,,,1.7,0.9,1.4*3D
$GPGSV,3,1,09,01,74,042,44,03,58,301,41,06,45,118,39,11,39,225,38*7E
$GPGSV,3,2,09,14,31,072,37,17,26,289,35,19,21,155,34,22,18,331,33*75
$GPGSV,3,3,09,28,12,201,31*48
$GPRMC,143058.00,A,2759.6640,N,08037.4040,W,0.03,0.00,170826,,,A*4F
$GPGGA,143059.00,2759.6640,N,08037.4040,W,1,09,0.9,6.4,M,-25.7,M,,*5A
$GPGSA,A,3,01,03,06,11,14,17,19,22,28,,,,1.7,0.9,1.4*3D
$GPGSV,3,1,09,01,74,042,44,03,58,301,41,06,45,118,39,11,39,225,38*7E
$GPGSV,3,2,09,14,31,072,37,17,26,289,35,19,21,155,34,22,18,331,33*75
$GPGSV,3,3,09,28,12,201,31*48
$GPRMC,143059.00,A,2759.6640,N,08037.4040,W,0.03,0.00,170826,,,A*4E
$GPGGA,143100.00,2759.6640,N,08037.4040,W,1,09,0.9,6.4,M,-25.7,M,,*57
$GPGSA,A,3,01,03,06,11,14,17,19,22,28,,,,1.7,0.9,1.4*3D
$GPGSV,3,1,09,01,74,042,44,03,58,301,41,06,45,118,39,11,39,225,38*7E
$GPGSV,3,2,09,14,31,072,37,17,26,289,35,19,21,155,34,22,18,331,33*75
$GPGSV,3,3,09,28,12,201,31*48
$GPRMC,143100.00,A,2759.6640,N,08037.4040,W,0.03,0.00,170826,,,A*43
$GPGGA,143101.00,2759.6640,N,08037.4040,W,1,09,0.9,6.4,M,-25.7,M,,*56
$GPGSA,A,3,01,03,06,11,14,17,19,22,28,,,,1.7,0.9,1.4*3D
$GPGSV,3,1,09,01,74,042,44,03,58,301,41,06,45,118,39,11,39,225,38*7E
$GPGSV,3,2,09,14,31,072,37,17,26,289,35,19,21,155,34,22,18,331,33*75
$GPGSV,3,3,09,28,12,201,31*48
$GPRMC,143101.00,A,2759.6640,N,08037.4040,W,0.03,0.00,170826,,,A*42
$GPGGA,143102.00,2759.6640,N,08037.4040,W,1,09,0.9,6.4,M,-25.7,M,,*55
$GPGSA,A,3,01,03,06,11,14,17,19,22,28,,,,1.7,0.9,1.4*3D
$GPGSV,3,1,09,01,74,042,44,03,58,301,41,06,45,118,39,11,39,225,38*7E
$GPGSV,3,2,09,14,31,072,37,17,26,289,35,19,21,155,34,22,18,331,33*75
$GPGSV,3,3,09,28,12,201,31*48
$GPRMC,143102.00,A,2759.6640,N,08037.4040,W,0.03,0.00,170826,,,A*41
$GPGGA,143103.00,2759.6640,N,08037.4040,W,1,09,0.9,6.4,M,-25.7,M,,*54
$GPGSA,A,3,01,03,06,11,14,17,19,22,28,,,,1.7,0.9,1.4*3D
$GPGSV,3,1,09,01,74,042,44,03,58,301,41,06,45,118,39,11,39,225,38*7E
$GPGSV,3,2,09,14,31,072,37,17,26,289,35,19,21,155,34,22,18,331,33*75
$GPGSV,3,3,09,28,12,201,31*48
$GPRMC,143103.00,A,2759.6640,N,08037.4040,W,0.03,0.00,170826,,,A*40
$GPGGA,143104.00,2759.6640,N,08037.4040,W,1,09,0.9,6.4,M,-25.7,M,,*53
$GPGSA,A,3,01,03,06,11,14,17,19,22,28,,,,1.7,0.9,1.4*3D
$GPGSV,3,1,09,01,74,042,44,03,58,301,41,06,45,118,39,11,39,225,38*7E
$GPGSV,3,2,09,14,31,072,37,17,26,289,35,19,21,155,34,22,18,331,33*75
$GPGSV,3,3,09,28,12,201,31*48
$GPRMC,143104.00,A,2759.6640,N,08037.4040,W,0.03,0.00,170826,,,A*47
$GPGGA,143105.00,2759.6640,N,08037.4040,W,1,09,0.9,6.4,M,-25.7,M,,*52
$GPGSA,A,3,01,03,06,11,14,17,19,22,28,,,,1.7,0.9,1.4*3D
$GPGSV,3,1,09,01,74,042,44,03,58,301,41,06,45,118,39,11,39,225,38*7E
$GPGSV,3,2,09,14,31,072,37,17,26,289,35,19,21,155,34,22,18,331,33*75
$GPGSV,3,3,09,28,12,201,31*48
$GPRMC,143105.00,A,2759.6640,N,08037.4040,W,0.03,0.00,170826,,,A*46
$GPGGA,143106.00,2759.6640,N,08037.4040,W,1,09,0.9,6.4,M,-25.7,M,,*51
$GPGSA,A,3,01,03,06,11,14,17,19,22,28,,,,1.7,0.9,1.4*3D
$GPGSV,3,1,09,01,74,042,44,03,58,301,41,06,45,118,39,11,39,225,38*7E
$GPGSV,3,2,09,14,31,072,37,17,26,289,35,19,21,155,34,22,18,331,33*75
$GPGSV,3,3,09,28,12,201,31*48
$GPRMC,143106.00,A,2759.6640,N,08037.4040,W,0.03,0.00,170826,,,A*45
$GPGGA,143107.00,2759.6640,N,08037.4040,W,1,09,0.9,6.4,M,-25.7,M,,*50
$GPGSA,A,3,01,03,06,11,14,17,19,22,28,,,,1.7,0.9,1.4*3D
$GPGSV,3,1,09,01,74,042,44,03,58,301,41,06,45,118,39,11,39,225,38*7E
$GPGSV,3,2,09,14,31,072,37,17,26,289,35,19,21,155,34,22,18,331,33*75
$GPGSV,3,3,09,28,12,201,31*48
$GPRMC,143107.00,A,2759.6640,N,08037.4040,W,0.03,0.00,170826,,,A*44
$GPGGA,143108.00,2759.6640,N,08037.4040,W,1,09,0.9,6.4,M,-25.7,M,,*5F
$GPGSA,A,3,01,03,06,11,14,17,19,22,28,,,,1.7,0.9,1.4*3D
$GPGSV,3,1,09,01,74,042,44,03,58,301,41,06,45,118,39,11,39,225,38*7E
$GPGSV,3,2,09,14,31,072,37,17,26,289,35,19,21,155,34,22,18,331,33*75
$GPGSV,3,3,09,28,12,201,31*48
$GPRMC,143108.00,A,2759.6640,N,08037.4040,W,0.03,0.00,170826,,,A*4B
$GPGGA,143109.00,2759.6640,N,08037.4040,W,1,09,0.9,6.4,M,-25.7,M,,*5E
$GPGSA,A,3,01,03,06,11,14,17,19,22,28,,,,1.7,0.9,1.4*3D
$GPGSV,3,1,09,01,74,042,44,03,58,301,41,06,45,118,39,11,39,225,38*7E
$GPGSV,3,2,09,14,31,072,37,17,26,289,35,19,21,155,34,22,18,331,33*75
$GPGSV,3,3,09,28,12,201,31*48
$GPRMC,143109.00,A,2759.6640,N,08037.4040,W,0.03,0.00,170826,,,A*4A
$GPGGA,143110.00,2759.6640,N,08037.4040,W,1,09,0.9,6.4,M,-25.7,M,,*56
$GPGSA,A,3,01,03,06,11,14,17,19,22,28,,,,1.7,0.9,1.4*3D
$GPGSV,3,1,09,01,74,042,44,03,58,301,41,06,45,118,39,11,39,225,38*7E
$GPGSV,3,2,09,14,31,072,37,17,26,289,35,19,21,155,34,22,18,331,33*75
$GPGSV,3,3,09,28,12,201,31*48
$GPRMC,143110.00,A,2759.6640,N,08037.4040,W,0.03,0.00,170826,,,A*42
$GPGGA,143111.00,2759.6640,N,08037.4040,W,1,09,0.9,6.4,M,-25.7,M,,*57
$GPGSA,A,3,01,03,06,11,14,17,19,22,28,,,,1.7,0.9,1.4*3D
$GPGSV,3,1,09,01,74,042,44,03,58,301,41,06,45,118,39,11,39,225,38*7E
$GPGSV,3,2,09,14,31,072,37,17,26,289,35,19,21,155,34,22,18,331,33*75
$GPGSV,3,3,09,28,12,201,31*48
$GPRMC,143111.00,A,2759.6640,N,08037.4040,W,0.03,0.00,170826,,,A*43
$GPGGA,143112.00,2759.6640,N,08037.4040,W,1,09,0.9,6.4,M,-25.7,M,,*54
$GPGSA,A,3,01,03,06,11,14,17,19,22,28,,,,1.7,0.9,1.4*3D
$GPGSV,3,1,09,01,74,042,44,03,58,301,41,06,45,118,39,11,39,225,38*7E
$GPGSV,3,2,09,14,31,072,37,17,26,289,35,19,21,155,34,22,18,331,33*75
$GPGSV,3,3,09,28,12,201,31*48
$GPRMC,143112.00,A,2759.6640,N,08037.4040,W,0.03,0.00,170826,,,A*40
$GPGGA,143113.00,2759.6640,N,08037.4040,W,1,09,0.9,6.4,M,-25.7,M,,*55
$GPGSA,A,3,01,03,06,11,14,17,19,22,28,,,,1.7,0.9,1.4*3D
$GPGSV,3,1,09,01,74,042,44,03,58,301,41,06,45,118,39,11,39,225,38*7E
$GPGSV,3,2,09,14,31,072,37,17,26,289,35,19,21,155,34,22,18,331,33*75
$GPGSV,3,3,09,28,12,201,31*48
$GPRMC,143113.00,A,2759.6640,N,08037.4040,W,0.03,0.00,170826,,,A*41
$GPGGA,143114.00,2759.6640,N,08037.4040,W,1,09,0.9,6.4,M,-25.7,M,,*52
$GPGSA,A,3,01,03,06,11,14,17,19,22,28,,,,1.7,0.9,1.4*3D
$GPGSV,3,1,09,01,74,042,44,03,58,301,41,06,45,118,39,11,39,225,38*7E
$GPGSV,3,2,09,14,31,072,37,17,26,289,35,19,21,155,34,22,18,331,33*75
$GPGSV,3,3,09,28,12,201,31*48
$GPRMC,143114.00,A,2759.6640,N,08037.4040,W,0.03,0.00,170826,,,A*46
$GPGGA,143115.00,2759.6640,N,08037.4040,W,1,09,0.9,6.4,M,-25.7,M,,*53
$GPGSA,A,3,01,03,06,11,14,17,19,22,28,,,,1.7,0.9,1.4*3D
$GPGSV,3,1,09,01,74,042,44,03,58,301,41,06,45,118,39,11,39,225,38*7E
$GPGSV,3,2,09,14,31,072,37,17,26,289,35,19,21,155,34,22,18,331,33*75
$GPGSV,3,3,09,28,12,201,31*48
$GPRMC,143115.00,A,2759.6640,N,08037.4040,W,0.03,0.00,170826,,,A*47
$GPGGA,143116.00,2759.6640,N,08037.4040,W,1,09,0.9,6.4,M,-25.7,M,,*50
$GPGSA,A,3,01,03,06,11,14,17,19,22,28,,,,1.7,0.9,1.4*3D
$GPGSV,3,1,09,01,74,042,44,03,58,301,41,06,45,118,39,11,39,225,38*7E
$GPGSV,3,2,09,14,31,072,37,17,26,289,35,19,21,155,34,22,18,331,33*75
$GPGSV,3,3,09,28,12,201,31*48
$GPRMC,143116.00,A,2759.6640,N,08037.4040,W,0.03,0.00,170826,,,A*44
$GPGGA,143117.00,2759.6640,N,08037.4040,W,1,09,0.9,6.4,M,-25.7,M,,*51
$GPGSA,A,3,01,03,06,11,14,17,19,22,28,,,,1.7,0.9,1.4*3D
$GPGSV,3,1,09,01,74,042,44,03,58,301,41,06,45,118,39,11,39,225,38*7E
$GPGSV,3,2,09,14,31,072,37,17,26,289,35,19,21,155,34,22,18,331,33*75
$GPGSV,3,3,09,28,12,201,31*48
$GPRMC,143117.00,A,2759.6640,N,08037.4040,W,0.03,0.00,170826,,,A*45
$GPGGA,143118.00,2759.6640,N,08037.4040,W,1,09,0.9,6.4,M,-25.7,M,,*5E
$GPGSA,A,3,01,03,06,11,14,17,19,22,28,,,,1.7,0.9,1.4*3D
$GPGSV,3,1,09,01,74,042,44,03,58,301,41,06,45,118,39,11,39,225,38*7E
$GPGSV,3,2,09,14,31,072,37,17,26,289,35,19,21,155,34,22,18,331,33*75
$GPGSV,3,3,09,28,12,201,31*48
$GPRMC,143118.00,A,2759.6640,N,08037.4040,W,0.03,0.00,170826,,,A*4A
$GPGGA,143119.00,2759.6640,N,08037.4040,W,1,09,0.9,6.4,M,-25.7,M,,*5F
$GPGSA,A,3,01,03,06,11,14,17,19,22,28,,,,1.7,0.9,1.4*3D
$GPGSV,3,1,09,01,74,042,44,03,58,301,41,06,45,118,39,11,39,225,38*7E
$GPGSV,3,2,09,14,31,072,37,17,26,289,35,19,21,155,34,22,18,331,33*75
$GPGSV,3,3,09,28,12,201,31*48
$GPRMC,143119.00,A,2759.6640,N,08037.4040,W,0.03,0.00,170826,,,A*4B
$GPGGA,143120.00,2759.6640,N,08037.4040,W,1,09,0.9,6.4,M,-25.7,M,,*55
$GPGSA,A,3,01,03,06,11,14,17,19,22,28,,,,1.7,0.9,1.4*3D
$GPGSV,3,1,09,01,74,042,44,03,58,301,41,06,45,118,39,11,39,225,38*7E
$GPGSV,3,2,09,14,31,072,37,17,26,289,35,19,21,155,34,22,18,331,33*75
$GPGSV,3,3,09,28,12,201,31*48
$GPRMC,143120.00,A,2759.6640,N,08037.4040,W,0.03,0.00,170826,,,A*41
$GPGGA,143121.00,2759.6640,N,08037.4040,W,1,09,0.9,6.4,M,-25.7,M,,*54
$GPGSA,A,3,01,03,06,11,14,17,19,22,28,,,,1.7,0.9,1.4*3D
$GPGSV,3,1,09,01,74,042,44,03,58,301,41,06,45,118,39,11,39,225,38*7E
$GPGSV,3,2,09,14,31,072,37,17,26,289,35,19,21,155,34,22,18,331,33*75
$GPGSV,3,3,09,28,12,201,31*48
$GPRMC,143121.00,A,2759.6640,N,08037.4040,W,0.03,0.00,170826,,,A*40
$GPGGA,143122.00,2759.6640,N,08037.4040,W,1,09,0.9,6.4,M,-25.7,M,,*57
$GPGSA,A,3,01,03,06,11,14,17,19,22,28,,,,1.7,0.9,1.4*3D
$GPGSV,3,1,09,01,74,042,44,03,58,301,41,06,45,118,39,11,39,225,38*7E
$GPGSV,3,2,09,14,31,072,37,17,26,289,35,19,21,155,34,22,18,331,33*75
$GPGSV,3,3,09,28,12,201,31*48
$GPRMC,143122.00,A,2759.6640,N,08037.4040,W,0.03,0.00,170826,,,A*43
$GPGGA,143123.00,2759.6640,N,08037.4040,W,1,09,0.9,6.4,M,-25.7,M,,*56
$GPGSA,A,3,01,03,06,11,14,17,19,22,28,,,,1.7,0.9,1.4*3D
$GPGSV,3,1,09,01,74,042,44,03,58,301,41,06,45,118,39,11,39,225,38*7E
$GPGSV,3,2,09,14,31,072,37,17,26,289,35,19,21,155,34,22,18,331,33*75
$GPGSV,3,3,09,28,12,201,31*48
$GPRMC,143123.00,A,2759.6640,N,08037.4040,W,0.03,0.00,170826,,,A*42
$GPGGA,143124.00,2759.6640,N,08037.4040,W,1,09,0.9,6.4,M,-25.7,M,,*51
$GPGSA,A,3,01,03,06,11,14,17,19,22,28,,,,1.7,0.9,1.4*3D
$GPGSV,3,1,09,01,74,042,44,03,58,301,41,06,45,118,39,11,39,225,38*7E
$GPGSV,3,2,09,14,31,072,37,17,26,289,35,19,21,155,34,22,18,331,33*75
$GPGSV,3,3,09,28,12,201,31*48
$GPRMC,143124.00,A,2759.6640,N,08037.4040,W,0.03,0.00,170826,,,A*45
$GPGGA,143125.00,2759.6640,N,08037.4040,W,1,09,0.9,6.4,M,-25.7,M,,*50
$GPGSA,A,3,01,03,06,11,14,17,19,22,28,,,,1.7,0.9,1.4*3D
$GPGSV,3,1,09,01,74,042,44,03,58,301,41,06,45,118,39,11,39,225,38*7E
$GPGSV,3,2,09,14,31,072,37,17,26,289,35,19,21,155,34,22,18,331,33*75
$GPGSV,3,3,09,28,12,201,31*48
$GPRMC,143125.00,A,2759.6640,N,08037.4040,W,0.03,0.00,170826,,,A*44
$GPGGA,143126.00,2759.6640,N,08037.4040,W,1,09,0.9,6.4,M,-25.7,M,,*53
$GPGSA,A,3,01,03,06,11,14,17,19,22,28,,,,1.7,0.9,1.4*3D
$GPGSV,3,1,09,01,74,042,44,03,58,301,41,06,45,118,39,11,39,225,38*7E
$GPGSV,3,2,09,14,31,072,37,17,26,289,35,19,21,155,34,22,18,331,33*75
$GPGSV,3,3,09,28,12,201,31*48
$GPRMC,143126.00,A,2759.6640,N,08037.4040,W,0.03,0.00,170826,,,A*47
$GPGGA,143127.00,2759.6640,N,08037.4040,W,1,09,0.9,6.4,M,-25.7,M,,*52
$GPGSA,A,3,01,03,06,11,14,17,19,22,28,,,,1.7,0.9,1.4*3D
$GPGSV,3,1,09,01,74,042,44,03,58,301,41,06,45,118,39,11,39,225,38*7E
$GPGSV,3,2,09,14,31,072,37,17,26,289,35,19,21,155,34,22,18,331,33*75
$GPGSV,3,3,09,28,12,201,31*48
$GPRMC,143127.00,A,2759.6640,N,08037.4040,W,0.03,0.00,170826,,,A*46
$GPGGA,143128.00,2759.6640,N,08037.4040,W,1,09,0.9,6.4,M,-25.7,M,,*5D
$GPGSA,A,3,01,03,06,11,14,17,19,22,28,,,,1.7,0.9,1.4*3D
$GPGSV,3,1,09,01,74,042,44,03,58,301,41,06,45,118,39,11,39,225,38*7E
$GPGSV,3,2,09,14,31,072,37,17,26,289,35,19,21,155,34,22,18,331,33*75
$GPGSV,3,3,09,28,12,201,31*48
$GPRMC,143128.00,A,2759.6640,N,08037.4040,W,0.03,0.00,170826,,,A*49
$GPGGA,143129.00,2759.6640,N,08037.4040,W,1,09,0.9,6.4,M,-25.7,M,,*5C
$GPGSA,A,3,01,03,06,11,14,17,19,22,28,,,,1.7,0.9,1.4*3D
$GPGSV,3,1,09,01,74,042,44,03,58,301,41,06,45,118,39,11,39,225,38*7E
$GPGSV,3,2,09,14,31,072,37,17,26,289,35,19,21,155,34,22,18,331,33*75
$GPGSV,3,3,09,28,12,201,31*48
$GPRMC,143129.00,A,2759.6640,N,08037.4040,W,0.03,0.00,170826,,,A*48
$GPGGA,143130.00,2759.6640,N,08037.4040,W,1,09,0.9,6.4,M,-25.7,M,,*54
$GPGSA,A,3,01,03,06,11,14,17,19,22,28,,,,1.7,0.9,1.4*3D
$GPGSV,3,1,09,01,74,042,44,03,58,301,41,06,45,118,39,11,39,225,38*7E
$GPGSV,3,2,09,14,31,072,37,17,26,289,35,19,21,155,34,22,18,331,33*75
$GPGSV,3,3,09,28,12,201,31*48
$GPRMC,143130.00,A,2759.6640,N,08037.4040,W,0.03,0.00,170826,,,A*40
$GPGGA,143131.00,2759.6640,N,08037.4040,W,1,09,0.9,6.4,M,-25.7,M,,*55
$GPGSA,A,3,01,03,06,11,14,17,19,22,28,,,,1.7,0.9,1.4*3D
$GPGSV,3,1,09,01,74,042,44,03,58,301,41,06,45,118,39,11,39,225,38*7E
$GPGSV,3,2,09,14,31,072,37,17,26,289,35,19,21,155,34,22,18,331,33*75
$GPGSV,3,3,09,28,12,201,31*48
$GPRMC,143131.00,A,2759.6640,N,08037.4040,W,0.03,0.00,170826,,,A*41
$GPGGA,143132.00,2759.6640,N,08037.4040,W,1,09,0.9,6.4,M,-25.7,M,,*56
$GPGSA,A,3,01,03,06,11,14,17,19,22,28,,,,1.7,0.9,1.4*3D
$GPGSV,3,1,09,01,74,042,44,03,58,301,41,06,45,118,39,11,39,225,38*7E
$GPGSV,3,2,09,14,31,072,37,17,26,289,35,19,21,155,34,22,18,331,33*75
$GPGSV,3,3,09,28,12,201,31*48
$GPRMC,143132.00,A,2759.6640,N,08037.4040,W,0.03,0.00,170826,,,A*42
$GPGGA,143133.00,2759.6640,N,08037.4040,W,1,09,0.9,6.4,M,-25.7,M,,*57
$GPGSA,A,3,01,03,06,11,14,17,19,22,28,,,,1.7,0.9,1.4*3D
$GPGSV,3,1,09,01,74,042,44,03,58,301,41,06,45,118,39,11,39,225,38*7E
$GPGSV,3,2,09,14,31,072,37,17,26,289,35,19,21,155,34,22,18,331,33*75
$GPGSV,3,3,09,28,12,201,31*48
$GPRMC,143133.00,A,2759.6640,N,08037.4040,W,0.03,0.00,170826,,,A*43
$GPGGA,143134.00,2759.6640,N,08037.4040,W,1,09,0.9,6.4,M,-25.7,M,,*50
$GPGSA,A,3,01,03,06,11,14,17,19,22,28,,,,1.7,0.9,1.4*3D
$GPGSV,3,1,09,01,74,042,44,03,58,301,41,06,45,118,39,11,39,225,38*7E
$GPGSV,3,2,09,14,31,072,37,17,26,289,35,19,21,155,34,22,18,331,33*75
$GPGSV,3,3,09,28,12,201,31*48
$GPRMC,143134.00,A,2759.6640,N,08037.4040,W,0.03,0.00,170826,,,A*44
$GPGGA,143135.00,2759.6640,N,08037.4040,W,1,09,0.9,6.4,M,-25.7,M,,*51
$GPGSA,A,3,01,03,06,11,14,17,19,22,28,,,,1.7,0.9,1.4*3D
$GPGSV,3,1,09,01,74,042,44,03,58,301,41,06,45,118,39,11,39,225,38*7E
$GPGSV,3,2,09,14,31,072,37,17,26,289,35,19,21,155,34,22,18,331,33*75
$GPGSV,3,3,09,28,12,201,31*48
$GPRMC,143135.00,A,2759.6640,N,08037.4040,W,0.03,0.00,170826,,,A*45
$GPGGA,143136.00,2759.6640,N,08037.4040,W,1,09,0.9,6.4,M,-25.7,M,,*52
$GPGSA,A,3,01,03,06,11,14,17,19,22,28,,,,1.7,0.9,1.4*3D
$GPGSV,3,1,09,01,74,042,44,03,58,301,41,06,45,118,39,11,39,225,38*7E
$GPGSV,3,2,09,14,31,072,37,17,26,289,35,19,21,155,34,22,18,331,33*75
$GPGSV,3,3,09,28,12,201,31*48
$GPRMC,143136.00,A,2759.6640,N,08037.4040,W,0.03,0.00,170826,,,A*46
$GPGGA,143137.00,2759.6640,N,08037.4040,W,1,09,0.9,6.4,M,-25.7,M,,*53
$GPGSA,A,3,01,03,06,11,14,17,19,22,28,,,,1.7,0.9,1.4*3D
$GPGSV,3,1,09,01,74,042,44,03,58,301,41,06,45,118,39,11,39,225,38*7E
$GPGSV,3,2,09,14,31,072,37,17,26,289,35,19,21,155,34,22,18,331,33*75
$GPGSV,3,3,09,28,12,201,31*48
$GPRMC,143137.00,A,2759.6640,N,08037.4040,W,0.03,0.00,170826,,,A*47
$GPGGA,143138.00,2759.6640,N,08037.4040,W,1,09,0.9,6.4,M,-25.7,M,,*5C
$GPGSA,A,3,01,03,06,11,14,17,19,22,28,,,,1.7,0.9,1.4*3D
$GPGSV,3,1,09,01,74,042,44,03,58,301,41,06,45,118,39,11,39,225,38*7E
$GPGSV,3,2,09,14,31,072,37,17,26,289,35,19,21,155,34,22,18,331,33*75
$GPGSV,3,3,09,28,12,201,31*48
$GPRMC,143138.00,A,2759.6640,N,08037.4040,W,0.03,0.00,170826,,,A*48
$GPGGA,143139.00,2759.6640,N,08037.4040,W,1,09,0.9,6.4,M,-25.7,M,,*5D
$GPGSA,A,3,01,03,06,11,14,17,19,22,28,,,,1.7,0.9,1.4*3D
$GPGSV,3,1,09,01,74,042,44,03,58,301,41,06,45,118,39,11,39,225,38*7E
$GPGSV,3,2,09,14,31,072,37,17,26,289,35,19,21,155,34,22,18,331,33*75
$GPGSV,3,3,09,28,12,201,31*48
$GPRMC,143139.00,A,2759.6640,N,08037.4040,W,0.03,0.00,170826,,,A*49
$GPGGA,143140.00,2759.6640,N,08037.4040,W,1,09,0.9,6.4,M,-25.7,M,,*53
$GPGSA,A,3,01,03,06,11,14,17,19,22,28,,,,1.7,0.9,1.4*3D
$GPGSV,3,1,09,01,74,042,44,03,58,301,41,06,45,118,39,11,39,225,38*7E
$GPGSV,3,2,09,14,31,072,37,17,26,289,35,19,21,155,34,22,18,331,33*75
$GPGSV,3,3,09,28,12,201,31*48
$GPRMC,143140.00,A,2759.6640,N,08037.4040,W,0.03,0.00,170826,,,A*47
$GPGGA,143141.00,2759.6640,N,08037.4040,W,1,09,0.9,6.4,M,-25.7,M,,*52
$GPGSA,A,3,01,03,06,11,14,17,19,22,28,,,,1.7,0.9,1.4*3D
$GPGSV,3,1,09,01,74,042,44,03,58,301,41,06,45,118,39,11,39,225,38*7E
$GPGSV,3,2,09,14,31,072,37,17,26,289,35,19,21,155,34,22,18,331,33*75
$GPGSV,3,3,09,28,12,201,31*48
$GPRMC,143141.00,A,2759.6640,N,08037.4040,W,0.03,0.00,170826,,,A*46
$GPGGA,143142.00,2759.6640,N,08037.4040,W,1,09,0.9,6.4,M,-25.7,M,,*51
$GPGSA,A,3,01,03,06,11,14,17,19,22,28,,,,1.7,0.9,1.4*3D
$GPGSV,3,1,09,01,74,042,44,03,58,301,41,06,45,118,39,11,39,225,38*7E
$GPGSV,3,2,09,14,31,072,37,17,26,289,35,19,21,155,34,22,18,331,33*75
$GPGSV,3,3,09,28,12,201,31*48
$GPRMC,143142.00,A,2759.6640,N,08037.4040,W,0.03,0.00,170826,,,A*45
$GPGGA,143143.00,2759.6640,N,08037.4040,W,1,09,0.9,6.4,M,-25.7,M,,*50
$GPGSA,A,3,01,03,06,11,14,17,19,22,28,,,,1.7,0.9,1.4*3D
$GPGSV,3,1,09,01,74,042,44,03,58,301,41,06,45,118,39,11,39,225,38*7E
$GPGSV,3,2,09,14,31,072,37,17,26,289,35,19,21,155,34,22,18,331,33*75
$GPGSV,3,3,09,28,12,201,31*48
$GPRMC,143143.00,A,2759.6640,N,08037.4040,W,0.03,0.00,170826,,,A*44
$GPGGA,143144.00,2759.6640,N,08037.4040,W,1,09,0.9,6.4,M,-25.7,M,,*57
$GPGSA,A,3,01,03,06,11,14,17,19,22,28,,,,1.7,0.9,1.4*3D
$GPGSV,3,1,09,01,74,042,44,03,58,301,41,06,45,118,39,11,39,225,38*7E
$GPGSV,3,2,09,14,31,072,37,17,26,289,35,19,21,155,34,22,18,331,33*75
$GPGSV,3,3,09,28,12,201,31*48
$GPRMC,143144.00,A,2759.6640,N,08037.4040,W,0.03,0.00,170826,,,A*43
$GPGGA,143145.00,2759.6640,N,08037.4040,W,1,09,0.9,6.4,M,-25.7,M,,*56
$GPGSA,A,3,01,03,06,11,14,17,19,22,28,,,,1.7,0.9,1.4*3D
$GPGSV,3,1,09,01,74,042,44,03,58,301,41,06,45,118,39,11,39,225,38*7E
$GPGSV,3,2,09,14,31,072,37,17,26,289,35,19,21,155,34,22,18,331,33*75
$GPGSV,3,3,09,28,12,201,31*48
$GPRMC,143145.00,A,2759.6640,N,08037.4040,W,0.03,0.00,170826,,,A*42
$GPGGA,143146.00,2759.6640,N,08037.4040,W,1,09,0.9,6.4,M,-25.7,M,,*55
$GPGSA,A,3,01,03,06,11,14,17,19,22,28,,,,1.7,0.9,1.4*3D
$GPGSV,3,1,09,01,74,042,44,03,58,301,41,06,45,118,39,11,39,225,38*7E
$GPGSV,3,2,09,14,31,072,37,17,26,289,35,19,21,155,34,22,18,331,33*75
$GPGSV,3,3,09,28,12,201,31*48
$GPRMC,143146.00,A,2759.6640,N,08037.4040,W,0.03,0.00,170826,,,A*41
$GPGGA,143147.00,2759.6640,N,08037.4040,W,1,09,0.9,6.4,M,-25.7,M,,*54
$GPGSA,A,3,01,03,06,11,14,17,19,22,28,,,,1.7,0.9,1.4*3D
$GPGSV,3,1,09,01,74,042,44,03,58,301,41,06,45,118,39,11,39,225,38*7E
$GPGSV,3,2,09,14,31,072,37,17,26,289,35,19,21,155,34,22,18,331,33*75
$GPGSV,3,3,09,28,12,201,31*48
$GPRMC,143147.00,A,2759.6640,N,08037.4040,W,0.03,0.00,170826,,,A*40
$GPGGA,143148.00,2759.6640,N,08037.4040,W,1,09,0.9,6.4,M,-25.7,M,,*5B
$GPGSA,A,3,01,03,06,11,14,17,19,22,28,,,,1.7,0.9,1.4*3D
$GPGSV,3,1,09,01,74,042,44,03,58,301,41,06,45,118,39,11,39,225,38*7E
$GPGSV,3,2,09,14,31,072,37,17,26,289,35,19,21,155,34,22,18,331,33*75
$GPGSV,3,3,09,28,12,201,31*48
$GPRMC,143148.00,A,2759.6640,N,08037.4040,W,0.03,0.00,170826,,,A*4F
$GPGGA,143149.00,2759.6640,N,08037.4040,W,1,09,0.9,6.4,M,-25.7,M,,*5A
$GPGSA,A,3,01,03,06,11,14,17,19,22,28,,,,1.7,0.9,1.4*3D
$GPGSV,3,1,09,01,74,042,44,03,58,301,41,06,45,118,39,11,39,225,38*7E
$GPGSV,3,2,09,14,31,072,37,17,26,289,35,19,21,155,34,22,18,331,33*75
$GPGSV,3,3,09,28,12,201,31*48
$GPRMC,143149.00,A,2759.6640,N,08037.4040,W,0.03,0.00,170826,,,A*4E
$GPGGA,143150.00,2759.6640,N,08037.4040,W,1,09,0.9,6.4,M,-25.7,M,,*52
$GPGSA,A,3,01,03,06,11,14,17,19,22,28,,,,1.7,0.9,1.4*3D
$GPGSV,3,1,09,01,74,042,44,03,58,301,41,06,45,118,39,11,39,225,38*7E
$GPGSV,3,2,09,14,31,072,37,17,26,289,35,19,21,155,34,22,18,331,33*75
$GPGSV,3,3,09,28,12,201,31*48
$GPRMC,143150.00,A,2759.6640,N,08037.4040,W,0.03,0.00,170826,,,A*46
$GPGGA,143151.00,2759.6640,N,08037.4040,W,1,09,0.9,6.4,M,-25.7,M,,*53
$GPGSA,A,3,01,03,06,11,14,17,19,22,28,,,,1.7,0.9,1.4*3D
$GPGSV,3,1,09,01,74,042,44,03,58,301,41,06,45,118,39,11,39,225,38*7E
$GPGSV,3,2,09,14,31,072,37,17,26,289,35,19,21,155,34,22,18,331,33*75
$GPGSV,3,3,09,28,12,201,31*48
$GPRMC,143151.00,A,2759.6640,N,08037.4040,W,0.03,0.00,170826,,,A*47
$GPGGA,143152.00,2759.6640,N,08037.4040,W,1,09,0.9,6.4,M,-25.7,M,,*50
$GPGSA,A,3,01,03,06,11,14,17,19,22,28,,,,1.7,0.9,1.4*3D
$GPGSV,3,1,09,01,74,042,44,03,58,301,41,06,45,118,39,11,39,225,38*7E
$GPGSV,3,2,09,14,31,072,37,17,26,289,35,19,21,155,34,22,18,331,33*75
$GPGSV,3,3,09,28,12,201,31*48
$GPRMC,143152.00,A,2759.6640,N,08037.4040,W,0.03,0.00,170826,,,A*44
$GPGGA,143153.00,2759.6640,N,08037.4040,W,1,09,0.9,6.4,M,-25.7,M,,*51
$GPGSA,A,3,01,03,06,11,14,17,19,22,28,,,,1.7,0.9,1.4*3D
$GPGSV,3,1,09,01,74,042,44,03,58,301,41,06,45,118,39,11,39,225,38*7E
$GPGSV,3,2,09,14,31,072,37,17,26,289,35,19,21,155,34,22,18,331,33*75
$GPGSV,3,3,09,28,12,201,31*48
$GPRMC,143153.00,A,2759.6640,N,08037.4040,W,0.03,0.00,170826,,,A*45
$GPGGA,143154.00,2759.6640,N,08037.4040,W,1,09,0.9,6.4,M,-25.7,M,,*56
$GPGSA,A,3,01,03,06,11,14,17,19,22,28,,,,1.7,0.9,1.4*3D
$GPGSV,3,1,09,01,74,042,44,03,58,301,41,06,45,118,39,11,39,225,38*7E
$GPGSV,3,2,09,14,31,072,37,17,26,289,35,19,21,155,34,22,18,331,33*75
$GPGSV,3,3,09,28,12,201,31*48
$GPRMC,143154.00,A,2759.6640,N,08037.4040,W,0.03,0.00,170826,,,A*42
$GPGGA,143155.00,2759.6640,N,08037.4040,W,1,09,0.9,6.4,M,-25.7,M,,*57
$GPGSA,A,3,01,03,06,11,14,17,19,22,28,,,,1.7,0.9,1.4*3D
$GPGSV,3,1,09,01,74,042,44,03,58,301,41,06,45,118,39,11,39,225,38*7E
$GPGSV,3,2,09,14,31,072,37,17,26,289,35,19,21,155,34,22,18,331,33*75
$GPGSV,3,3,09,28,12,201,31*48
$GPRMC,143155.00,A,2759.6640,N,08037.4040,W,0.03,0.00,170826,,,A*43
$GPGGA,143156.00,2759.6640,N,08037.4040,W,1,09,0.9,6.4,M,-25.7,M,,*54
$GPGSA,A,3,01,03,06,11,14,17,19,22,28,,,,1.7,0.9,1.4*3D
$GPGSV,3,1,09,01,74,042,44,03,58,301,41,06,45,118,39,11,39,225,38*7E
$GPGSV,3,2,09,14,31,072,37,17,26,289,35,19,21,155,34,22,18,331,33*75
$GPGSV,3,3,09,28,12,201,31*48
$GPRMC,143156.00,A,2759.6640,N,08037.4040,W,0.03,0.00,170826,,,A*40
$GPGGA,143157.00,2759.6640,N,08037.4040,W,1,09,0.9,6.4,M,-25.7,M,,*55
$GPGSA,A,3,01,03,06,11,14,17,19,22,28,,,,1.7,0.9,1.4*3D
$GPGSV,3,1,09,01,74,042,44,03,58,301,41,06,45,118,39,11,39,225,38*7E
$GPGSV,3,2,09,14,31,072,37,17,26,289,35,19,21,155,34,22,18,331,33*75
$GPGSV,3,3,09,28,12,201,31*48
$GPRMC,143157.00,A,2759.6640,N,08037.4040,W,0.03,0.00,170826,,,A*41
$GPGGA,143158.00,2759.6640,N,08037.4040,W,1,09,0.9,6.4,M,-25.7,M,,*5A
$GPGSA,A,3,01,03,06,11,14,17,19,22,28,,,,1.7,0.9,1.4*3D
$GPGSV,3,1,09,01,74,042,44,03,58,301,41,06,45,118,39,11,39,225,38*7E
$GPGSV,3,2,09,14,31,072,37,17,26,289,35,19,21,155,34,22,18,331,33*75
$GPGSV,3,3,09,28,12,201,31*48
$GPRMC,143158.00,A,2759.6640,N,08037.4040,W,0.03,0.00,170826,,,A*4E
$GPGGA,143159.00,2759.6640,N,08037.4040,W,1,09,0.9,6.4,M,-25.7,M,,*5B
$GPGSA,A,3,01,03,06,11,14,17,19,22,28,,,,1.7,0.9,1.4*3D
$GPGSV,3,1,09,01,74,042,44,03,58,301,41,06,45,118,39,11,39,225,38*7E
$GPGSV,3,2,09,14,31,072,37,17,26,289,35,19,21,155,34,22,18,331,33*75
$GPGSV,3,3,09,28,12,201,31*48
$GPRMC,143159.00,A,2759.6640,N,08037.4040,W,0.03,0.00,170826,,,A*4F
