$GPGGA,143000.00,,,,,0,00,,,M,,M,,*4E
$GPGSA,A,1,,,,,,,,,,,,,,,*1E
$GPGSV,2,1,08,26,,,31,08,,,28,31,,,34,28,,,21*7A
$GPGSV,2,2,08,04,,,24,16,,,26,03,,,33,27,,,29*7D
$GPRMC,143000.00,V,,,,,0.00,0.00,170826,,,N*71
$GPGGA,143001.00,,,,,0,00,,,M,,M,,*4F
$GPGSA,A,1,,,,,,,,,,,,,,,*1E
$GPGSV,2,1,08,26,,,31,08,,,28,31,,,34,28,,,21*7A
$GPGSV,2,2,08,04,,,24,16,,,26,03,,,33,27,,,29*7D
$GPRMC,143001.00,V,,,,,0.00,0.00,170826,,,N*70
$GPGGA,143002.00,,,,,0,00,,,M,,M,,*4C
$GPGSA,A,1,,,,,,,,,,,,,,,*1E
$GPGSV,2,1,08,26,,,31,08,,,28,31,,,34,28,,,21*7A
$GPGSV,2,2,08,04,,,24,16,,,26,03,,,33,27,,,29*7D
$GPRMC,143002.00,V,,,,,0.00,0.00,170826,,,N*73
$GPGGA,143003.00,,,,,0,00,,,M,,M,,*4D
$GPGSA,A,1,,,,,,,,,,,,,,,*1E
$GPGSV,2,1,08,26,,,31,08,,,28,31,,,34,28,,,21*7A
$GPGSV,2,2,08,04,,,24,16,,,26,03,,,33,27,,,29*7D
$GPRMC,143003.00,V,,,,,0.00,0.00,170826,,,N*72
$GPGGA,143004.00,,,,,0,00,,,M,,M,,*4A
$GPGSA,A,1,,,,,,,,,,,,,,,*1E
$GPGSV,2,1,08,26,,,31,08,,,28,31,,,34,28,,,21*7A
$GPGSV,2,2,08,04,,,24,16,,,26,03,,,33,27,,,29*7D
$GPRMC,143004.00,V,,,,,0.00,0.00,170826,,,N*75
$GPGGA,143005.00,,,,,0,00,,,M,,M,,*4B
$GPGSA,A,1,,,,,,,,,,,,,,,*1E
$GPGSV,2,1,08,26,,,31,08,,,28,31,,,34,28,,,21*7A
$GPGSV,2,2,08,04,,,24,16,,,26,03,,,33,27,,,29*7D
$GPRMC,143005.00,V,,,,,0.00,0.00,170826,,,N*74
$GPGGA,143006.00,,,,,0,00,,,M,,M,,*48
$GPGSA,A,1,,,,,,,,,,,,,,,*1E
$GPGSV,2,1,08,26,,,31,08,,,28,31,,,34,28,,,21*7A
$GPGSV,2,2,08,04,,,24,16,,,26,03,,,33,27,,,29*7D
$GPRMC,143006.00,V,,,,,0.00,0.00,170826,,,N*77
$GPGGA,143007.00,,,,,0,00,,,M,,M,,*49
$GPGSA,A,1,,,,,,,,,,,,,,,*1E
$GPGSV,2,1,08,26,,,31,08,,,28,31,,,34,28,,,21*7A
$GPGSV,2,2,08,04,,,24,16,,,26,03,,,33,27,,,29*7D
$GPRMC,143007.00,V,,,,,0.00,0.00,170826,,,N*76
$GPGGA,143008.00,,,,,0,00,,,M,,M,,*46
$GPGSA,A,1,,,,,,,,,,,,,,,*1E
$GPGSV,2,1,08,26,,,31,08,,,28,31,,,34,28,,,21*7A
$GPGSV,2,2,08,04,,,24,16,,,26,03,,,33,27,,,29*7D
$GPRMC,143008.00,V,,,,,0.00,0.00,170826,,,N*79
$GPGGA,143009.00,,,,,0,00,,,M,,M,,*47
$GPGSA,A,1,,,,,,,,,,,,,,,*1E
$GPGSV,2,1,08,26,,,31,08,,,28,31,,,34,28,,,21*7A
$GPGSV,2,2,08,04,,,24,16,,,26,03,,,33,27,,,29*7D
$GPRMC,143009.00,V,,,,,0.00,0.00,170826,,,N*78
$GPGGA,143010.00,,,,,0,00,,,M,,M,,*4F
$GPGSA,A,1,,,,,,,,,,,,,,,*1E
$GPGSV,2,1,08,26,,,31,08,,,28,31,,,34,28,,,21*7A
$GPGSV,2,2,08,04,,,24,16,,,26,03,,,33,27,,,29*7D
$GPRMC,143010.00,V,,,,,0.00,0.00,170826,,,N*70
$GPGGA,143011.00,,,,,0,00,,,M,,M,,*4E
$GPGSA,A,1,,,,,,,,,,,,,,,*1E
$GPGSV,2,1,08,26,,,31,08,,,28,31,,,34,28,,,21*7A
$GPGSV,2,2,08,04,,,24,16,,,26,03,,,33,27,,,29*7D
$GPRMC,143011.00,V,,,,,0.00,0.00,170826,,,N*71
$GPGGA,143012.00,,,,,0,00,,,M,,M,,*4D
$GPGSA,A,1,,,,,,,,,,,,,,,*1E
$GPGSV,2,1,08,26,,,31,08,,,28,31,,,34,28,,,21*7A
$GPGSV,2,2,08,04,,,24,16,,,26,03,,,33,27,,,29*7D
$GPRMC,143012.00,V,,,,,0.00,0.00,170826,,,N*72
$GPGGA,143013.00,,,,,0,00,,,M,,M,,*4C
$GPGSA,A,1,,,,,,,,,,,,,,,*1E
$GPGSV,2,1,08,26,,,31,08,,,28,31,,,34,28,,,21*7A
$GPGSV,2,2,08,04,,,24,16,,,26,03,,,33,27,,,29*7D
$GPRMC,143013.00,V,,,,,0.00,0.00,170826,,,N*73
$GPGGA,143014.00,,,,,0,00,,,M,,M,,*4B
$GPGSA,A,1,,,,,,,,,,,,,,,*1E
$GPGSV,2,1,08,26,,,31,08,,,28,31,,,34,28,,,21*7A
$GPGSV,2,2,08,04,,,24,16,,,26,03,,,33,27,,,29*7D
$GPRMC,143014.00,V,,,,,0.00,0.00,170826,,,N*74
$GPGGA,143015.00,,,,,0,00,,,M,,M,,*4A
$GPGSA,A,1,,,,,,,,,,,,,,,*1E
$GPGSV,2,1,08,26,,,31,08,,,28,31,,,34,28,,,21*7A
$GPGSV,2,2,08,04,,,24,16,,,26,03,,,33,27,,,29*7D
$GPRMC,143015.00,V,,,,,0.00,0.00,170826,,,N*75
$GPGGA,143016.00,,,,,0,00,,,M,,M,,*49
$GPGSA,A,1,,,,,,,,,,,,,,,*1E
$GPGSV,2,1,08,26,,,31,08,,,28,31,,,34,28,,,21*7A
$GPGSV,2,2,08,04,,,24,16,,,26,03,,,33,27,,,29*7D
$GPRMC,143016.00,V,,,,,0.00,0.00,170826,,,N*76
$GPGGA,143017.00,,,,,0,00,,,M,,M,,*48
$GPGSA,A,1,,,,,,,,,,,,,,,*1E
$GPGSV,2,1,08,26,,,31,08,,,28,31,,,34,28,,,21*7A
$GPGSV,2,2,08,04,,,24,16,,,26,03,,,33,27,,,29*7D
$GPRMC,143017.00,V,,,,,0.00,0.00,170826,,,N*77
$GPGGA,143018.00,,,,,0,00,,,M,,M,,*47
$GPGSA,A,1,,,,,,,,,,,,,,,*1E
$GPGSV,2,1,08,26,,,31,08,,,28,31,,,34,28,,,21*7A
$GPGSV,2,2,08,04,,,24,16,,,26,03,,,33,27,,,29*7D
$GPRMC,143018.00,V,,,,,0.00,0.00,170826,,,N*78
$GPGGA,143019.00,,,,,0,00,,,M,,M,,*46
$GPGSA,A,1,,,,,,,,,,,,,,,*1E
$GPGSV,2,1,08,26,,,31,08,,,28,31,,,34,28,,,21*7A
$GPGSV,2,2,08,04,,,24,16,,,26,03,,,33,27,,,29*7D
$GPRMC,143019.00,V,,,,,0.00,0.00,170826,,,N*79
$GPGGA,143020.00,,,,,0,00,,,M,,M,,*4C
$GPGSA,A,1,,,,,,,,,,,,,,,*1E
$GPGSV,2,1,08,26,,,31,08,,,28,31,,,34,28,,,21*7A
$GPGSV,2,2,08,04,,,24,16,,,26,03,,,33,27,,,29*7D
$GPRMC,143020.00,V,,,,,0.00,0.00,170826,,,N*73
$GPGGA,143021.00,,,,,0,00,,,M,,M,,*4D
$GPGSA,A,1,,,,,,,,,,,,,,,*1E
$GPGSV,2,1,08,26,,,31,08,,,28,31,,,34,28,,,21*7A
$GPGSV,2,2,08,04,,,24,16,,,26,03,,,33,27,,,29*7D
$GPRMC,143021.00,V,,,,,0.00,0.00,170826,,,N*72
$GPGGA,143022.00,,,,,0,00,,,M,,M,,*4E
$GPGSA,A,1,,,,,,,,,,,,,,,*1E
$GPGSV,2,1,08,26,,,31,08,,,28,31,,,34,28,,,21*7A
$GPGSV,2,2,08,04,,,24,16,,,26,03,,,33,27,,,29*7D
$GPRMC,143022.00,V,,,,,0.00,0.00,170826,,,N*71
$GPGGA,143023.00,,,,,0,00,,,M,,M,,*4F
$GPGSA,A,1,,,,,,,,,,,,,,,*1E
$GPGSV,2,1,08,26,,,31,08,,,28,31,,,34,28,,,21*7A
$GPGSV,2,2,08,04,,,24,16,,,26,03,,,33,27,,,29*7D
$GPRMC,143023.00,V,,,,,0.00,0.00,170826,,,N*70
$GPGGA,143024.00,,,,,0,00,,,M,,M,,*48
$GPGSA,A,1,,,,,,,,,,,,,,,*1E
$GPGSV,2,1,08,26,,,31,08,,,28,31,,,34,28,,,21*7A
$GPGSV,2,2,08,04,,,24,16,,,26,03,,,33,27,,,29*7D
$GPRMC,143024.00,V,,,,,0.00,0.00,170826,,,N*77
$GPGGA,143025.00,,,,,0,00,,,M,,M,,*49
$GPGSA,A,1,,,,,,,,,,,,,,,*1E
$GPGSV,2,1,08,26,,,31,08,,,28,31,,,34,28,,,21*7A
$GPGSV,2,2,08,04,,,24,16,,,26,03,,,33,27,,,29*7D
$GPRMC,143025.00,V,,,,,0.00,0.00,170826,,,N*76
$GPGGA,143026.00,,,,,0,00,,,M,,M,,*4A
$GPGSA,A,1,,,,,,,,,,,,,,,*1E
$GPGSV,2,1,08,26,,,31,08,,,28,31,,,34,28,,,21*7A
$GPGSV,2,2,08,04,,,24,16,,,26,03,,,33,27,,,29*7D
$GPRMC,143026.00,V,,,,,0.00,0.00,170826,,,N*75
$GPGGA,143027.00,,,,,0,00,,,M,,M,,*4B
$GPGSA,A,1,,,,,,,,,,,,,,,*1E
$GPGSV,2,1,08,26,,,31,08,,,28,31,,,34,28,,,21*7A
$GPGSV,2,2,08,04,,,24,16,,,26,03,,,33,27,,,29*7D
$GPRMC,143027.00,V,,,,,0.00,0.00,170826,,,N*74
$GPGGA,143028.00,,,,,0,00,,,M,,M,,*44
$GPGSA,A,1,,,,,,,,,,,,,,,*1E
$GPGSV,2,1,08,26,,,31,08,,,28,31,,,34,28,,,21*7A
$GPGSV,2,2,08,04,,,24,16,,,26,03,,,33,27,,,29*7D
$GPRMC,143028.00,V,,,,,0.00,0.00,170826,,,N*7B
$GPGGA,143029.00,,,,,0,00,,,M,,M,,*45
$GPGSA,A,1,,,,,,,,,,,,,,,*1E
$GPGSV,2,1,08,26,,,31,08,,,28,31,,,34,28,,,21*7A
$GPGSV,2,2,08,04,,,24,16,,,26,03,,,33,27,,,29*7D
$GPRMC,143029.00,V,,,,,0.00,0.00,170826,,,N*7A
$GPGGA,143030.00,,,,,0,00,,,M,,M,,*4D
$GPGSA,A,1,,,,,,,,,,,,,,,*1E
$GPGSV,2,1,08,26,,,31,08,,,28,31,,,34,28,,,21*7A
$GPGSV,2,2,08,04,,,24,16,,,26,03,,,33,27,,,29*7D
$GPRMC,143030.00,V,,,,,0.00,0.00,170826,,,N*72
$GPGGA,143031.00,,,,,0,00,,,M,,M,,*4C
$GPGSA,A,1,,,,,,,,,,,,,,,*1E
$GPGSV,2,1,08,26,,,31,08,,,28,31,,,34,28,,,21*7A
$GPGSV,2,2,08,04,,,24,16,,,26,03,,,33,27,,,29*7D
$GPRMC,143031.00,V,,,,,0.00,0.00,170826,,,N*73
$GPGGA,143032.00,,,,,0,00,,,M,,M,,*4F
$GPGSA,A,1,,,,,,,,,,,,,,,*1E
$GPGSV,2,1,08,26,,,31,08,,,28,31,,,34,28,,,21*7A
$GPGSV,2,2,08,04,,,24,16,,,26,03,,,33,27,,,29*7D
$GPRMC,143032.00,V,,,,,0.00,0.00,170826,,,N*70
$GPGGA,143033.00,,,,,0,00,,,M,,M,,*4E
$GPGSA,A,1,,,,,,,,,,,,,,,*1E
$GPGSV,2,1,08,26,,,31,08,,,28,31,,,34,28,,,21*7A
$GPGSV,2,2,08,04,,,24,16,,,26,03,,,33,27,,,29*7D
$GPRMC,143033.00,V,,,,,0.00,0.00,170826,,,N*71
$GPGGA,143034.00,,,,,0,00,,,M,,M,,*49
$GPGSA,A,1,,,,,,,,,,,,,,,*1E
$GPGSV,2,1,08,26,,,31,08,,,28,31,,,34,28,,,21*7A
$GPGSV,2,2,08,04,,,24,16,,,26,03,,,33,27,,,29*7D
$GPRMC,143034.00,V,,,,,0.00,0.00,170826,,,N*76
$GPGGA,143035.00,,,,,0,00,,,M,,M,,*48
$GPGSA,A,1,,,,,,,,,,,,,,,*1E
$GPGSV,2,1,08,26,,,31,08,,,28,31,,,34,28,,,21*7A
$GPGSV,2,2,08,04,,,24,16,,,26,03,,,33,27,,,29*7D
$GPRMC,143035.00,V,,,,,0.00,0.00,170826,,,N*77
$GPGGA,143036.00,,,,,0,00,,,M,,M,,*4B
$GPGSA,A,1,,,,,,,,,,,,,,,*1E
$GPGSV,2,1,08,26,,,31,08,,,28,31,,,34,28,,,21*7A
$GPGSV,2,2,08,04,,,24,16,,,26,03,,,33,27,,,29*7D
$GPRMC,143036.00,V,,,,,0.00,0.00,170826,,,N*74
$GPGGA,143037.00,,,,,0,00,,,M,,M,,*4A
$GPGSA,A,1,,,,,,,,,,,,,,,*1E
$GPGSV,2,1,08,26,,,31,08,,,28,31,,,34,28,,,21*7A
$GPGSV,2,2,08,04,,,24,16,,,26,03,,,33,27,,,29*7D
$GPRMC,143037.00,V,,,,,0.00,0.00,170826,,,N*75
$GPGGA,143038.00,,,,,0,00,,,M,,M,,*45
$GPGSA,A,1,,,,,,,,,,,,,,,*1E
$GPGSV,2,1,08,26,,,31,08,,,28,31,,,34,28,,,21*7A
$GPGSV,2,2,08,04,,,24,16,,,26,03,,,33,27,,,29*7D
$GPRMC,143038.00,V,,,,,0.00,0.00,170826,,,N*7A
$GPGGA,143039.00,,,,,0,00,,,M,,M,,*44
$GPGSA,A,1,,,,,,,,,,,,,,,*1E
$GPGSV,2,1,08,26,,,31,08,,,28,31,,,34,28,,,21*7A
$GPGSV,2,2,08,04,,,24,16,,,26,03,,,33,27,,,29*7D
$GPRMC,143039.00,V,,,,,0.00,0.00,170826,,,N*7B
$GPGGA,143040.00,,,,,0,00,,,M,,M,,*4A
$GPGSA,A,1,,,,,,,,,,,,,,,*1E
$GPGSV,2,1,08,26,,,31,08,,,28,31,,,34,28,,,21*7A
$GPGSV,2,2,08,04,,,24,16,,,26,03,,,33,27,,,29*7D
$GPRMC,143040.00,V,,,,,0.00,0.00,170826,,,N*75
$GPGGA,143041.00,,,,,0,00,,,M,,M,,*4B
$GPGSA,A,1,,,,,,,,,,,,,,,*1E
$GPGSV,2,1,08,26,,,31,08,,,28,31,,,34,28,,,21*7A
$GPGSV,2,2,08,04,,,24,16,,,26,03,,,33,27,,,29*7D
$GPRMC,143041.00,V,,,,,0.00,0.00,170826,,,N*74
$GPGGA,143042.00,,,,,0,00,,,M,,M,,*48
$GPGSA,A,1,,,,,,,,,,,,,,,*1E
$GPGSV,2,1,08,26,,,31,08,,,28,31,,,34,28,,,21*7A
$GPGSV,2,2,08,04,,,24,16,,,26,03,,,33,27,,,29*7D
$GPRMC,143042.00,V,,,,,0.00,0.00,170826,,,N*77
$GPGGA,143043.00,,,,,0,00,,,M,,M,,*49
$GPGSA,A,1,,,,,,,,,,,,,,,*1E
$GPGSV,2,1,08,26,,,31,08,,,28,31,,,34,28,,,21*7A
$GPGSV,2,2,08,04,,,24,16,,,26,03,,,33,27,,,29*7D
$GPRMC,143043.00,V,,,,,0.00,0.00,170826,,,N*76
$GPGGA,143044.00,,,,,0,00,,,M,,M,,*4E
$GPGSA,A,1,,,,,,,,,,,,,,,*1E
$GPGSV,2,1,08,26,,,31,08,,,28,31,,,34,28,,,21*7A
$GPGSV,2,2,08,04,,,24,16,,,26,03,,,33,27,,,29*7D
$GPRMC,143044.00,V,,,,,0.00,0.00,170826,,,N*71
$GPGGA,143045.00,,,,,0,00,,,M,,M,,*4F
$GPGSA,A,1,,,,,,,,,,,,,,,*1E
$GPGSV,2,1,08,26,,,31,08,,,28,31,,,34,28,,,21*7A
$GPGSV,2,2,08,04,,,24,16,,,26,03,,,33,27,,,29*7D
$GPRMC,143045.00,V,,,,,0.00,0.00,170826,,,N*70
$GPGGA,143046.00,,,,,0,00,,,M,,M,,*4C
$GPGSA,A,1,,,,,,,,,,,,,,,*1E
$GPGSV,2,1,08,26,,,31,08,,,28,31,,,34,28,,,21*7A
$GPGSV,2,2,08,04,,,24,16,,,26,03,,,33,27,,,29*7D
$GPRMC,143046.00,V,,,,,0.00,0.00,170826,,,N*73
$GPGGA,143047.00,,,,,0,00,,,M,,M,,*4D
$GPGSA,A,1,,,,,,,,,,,,,,,*1E
$GPGSV,2,1,08,26,,,31,08,,,28,31,,,34,28,,,21*7A
$GPGSV,2,2,08,04,,,24,16,,,26,03,,,33,27,,,29*7D
$GPRMC,143047.00,V,,,,,0.00,0.00,170826,,,N*72
$GPGGA,143048.00,,,,,0,00,,,M,,M,,*42
$GPGSA,A,1,,,,,,,,,,,,,,,*1E
$GPGSV,2,1,08,26,,,31,08,,,28,31,,,34,28,,,21*7A
$GPGSV,2,2,08,04,,,24,16,,,26,03,,,33,27,,,29*7D
$GPRMC,143048.00,V,,,,,0.00,0.00,170826,,,N*7D
$GPGGA,143049.00,,,,,0,00,,,M,,M,,*43
$GPGSA,A,1,,,,,,,,,,,,,,,*1E
$GPGSV,2,1,08,26,,,31,08,,,28,31,,,34,28,,,21*7A
$GPGSV,2,2,08,04,,,24,16,,,26,03,,,33,27,,,29*7D
$GPRMC,143049.00,V,,,,,0.00,0.00,170826,,,N*7C
$GPGGA,143050.00,,,,,0,00,,,M,,M,,*4B
$GPGSA,A,1,,,,,,,,,,,,,,,*1E
$GPGSV,2,1,08,26,,,31,08,,,28,31,,,34,28,,,21*7A
$GPGSV,2,2,08,04,,,24,16,,,26,03,,,33,27,,,29*7D
$GPRMC,143050.00,V,,,,,0.00,0.00,170826,,,N*74
$GPGGA,143051.00,,,,,0,00,,,M,,M,,*4A
$GPGSA,A,1,,,,,,,,,,,,,,,*1E
$GPGSV,2,1,08,26,,,31,08,,,28,31,,,34,28,,,21*7A
$GPGSV,2,2,08,04,,,24,16,,,26,03,,,33,27,,,29*7D
$GPRMC,143051.00,V,,,,,0.00,0.00,170826,,,N*75
$GPGGA,143052.00,,,,,0,00,,,M,,M,,*49
$GPGSA,A,1,,,,,,,,,,,,,,,*1E
$GPGSV,2,1,08,26,,,31,08,,,28,31,,,34,28,,,21*7A
$GPGSV,2,2,08,04,,,24,16,,,26,03,,,33,27,,,29*7D
$GPRMC,143052.00,V,,,,,0.00,0.00,170826,,,N*76
$GPGGA,143053.00,,,,,0,00,,,M,,M,,*48
$GPGSA,A,1,,,,,,,,,,,,,,,*1E
$GPGSV,2,1,08,26,,,31,08,,,28,31,,,34,28,,,21*7A
$GPGSV,2,2,08,04,,,24,16,,,26,03,,,33,27,,,29*7D
$GPRMC,143053.00,V,,,,,0.00,0.00,170826,,,N*77
$GPGGA,143054.00,,,,,0,00,,,M,,M,,*4F
$GPGSA,A,1,,,,,,,,,,,,,,,*1E
$GPGSV,2,1,08,26,,,31,08,,,28,31,,,34,28,,,21*7A
$GPGSV,2,2,08,04,,,24,16,,,26,03,,,33,27,,,29*7D
$GPRMC,143054.00,V,,,,,0.00,0.00,170826,,,N*70
$GPGGA,143055.00,,,,,0,00,,,M,,M,,*4E
$GPGSA,A,1,,,,,,,,,,,,,,,*1E
$GPGSV,2,1,08,26,,,31,08,,,28,31,,,34,28,,,21*7A
$GPGSV,2,2,08,04,,,24,16,,,26,03,,,33,27,,,29*7D
$GPRMC,143055.00,V,,,,,0.00,0.00,170826,,,N*71
$GPGGA,143056.00,,,,,0,00,,,M,,M,,*4D
$GPGSA,A,1,,,,,,,,,,,,,,,*1E
$GPGSV,2,1,08,26,,,31,08,,,28,31,,,34,28,,,21*7A
$GPGSV,2,2,08,04,,,24,16,,,26,03,,,33,27,,,29*7D
$GPRMC,143056.00,V,,,,,0.00,0.00,170826,,,N*72
$GPGGA,143057.00,,,,,0,00,,,M,,M,,*4C
$GPGSA,A,1,,,,,,,,,,,,,,,*1E
$GPGSV,2,1,08,26,,,31,08,,,28,31,,,34,28,,,21*7A
$GPGSV,2,2,08,04,,,24,16,,,26,03,,,33,27,,,29*7D
$GPRMC,143057.00,V,,,,,0.00,0.00,170826,,,N*73
$GPGGA,143058.00,,,,,0,00,,,M,,M,,*43
$GPGSA,A,1,,,,,,,,,,,,,,,*1E
$GPGSV,2,1,08,26,,,31,08,,,28,31,,,34,28,,,21*7A
$GPGSV,2,2,08,04,,,24,16,,,26,03,,,33,27,,,29*7D
$GPRMC,143058.00,V,,,,,0.00,0.00,170826,,,N*7C
$GPGGA,143059.00,,,,,0,00,,,M,,M,,*42
$GPGSA,A,1,,,,,,,,,,,,,,,*1E
$GPGSV,2,1,08,26,,,31,08,,,28,31,,,34,28,,,21*7A
$GPGSV,2,2,08,04,,,24,16,,,26,03,,,33,27,,,29*7D
$GPRMC,143059.00,V,,,,,0.00,0.00,170826,,,N*7D
$GPGGA,143100.00,,,,,0,00,,,M,,M,,*4F
$GPGSA,A,1,,,,,,,,,,,,,,,*1E
$GPGSV,2,1,08,26,,,31,08,,,28,31,,,34,28,,,21*7A
$GPGSV,2,2,08,04,,,24,16,,,26,03,,,33,27,,,29*7D
$GPRMC,143100.00,V,,,,,0.00,0.00,170826,,,N*70
$GPGGA,143101.00,,,,,0,00,,,M,,M,,*4E
$GPGSA,A,1,,,,,,,,,,,,,,,*1E
$GPGSV,2,1,08,26,,,31,08,,,28,31,,,34,28,,,21*7A
$GPGSV,2,2,08,04,,,24,16,,,26,03,,,33,27,,,29*7D
$GPRMC,143101.00,V,,,,,0.00,0.00,170826,,,N*71
$GPGGA,143102.00,,,,,0,00,,,M,,M,,*4D
$GPGSA,A,1,,,,,,,,,,,,,,,*1E
$GPGSV,2,1,08,26,,,31,08,,,28,31,,,34,28,,,21*7A
$GPGSV,2,2,08,04,,,24,16,,,26,03,,,33,27,,,29*7D
$GPRMC,143102.00,V,,,,,0.00,0.00,170826,,,N*72
$GPGGA,143103.00,,,,,0,00,,,M,,M,,*4C
$GPGSA,A,1,,,,,,,,,,,,,,,*1E
$GPGSV,2,1,08,26,,,31,08,,,28,31,,,34,28,,,21*7A
$GPGSV,2,2,08,04,,,24,16,,,26,03,,,33,27,,,29*7D
$GPRMC,143103.00,V,,,,,0.00,0.00,170826,,,N*73
$GPGGA,143104.00,,,,,0,00,,,M,,M,,*4B
$GPGSA,A,1,,,,,,,,,,,,,,,*1E
$GPGSV,2,1,08,26,,,31,08,,,28,31,,,34,28,,,21*7A
$GPGSV,2,2,08,04,,,24,16,,,26,03,,,33,27,,,29*7D
$GPRMC,143104.00,V,,,,,0.00,0.00,170826,,,N*74
$GPGGA,143105.00,,,,,0,00,,,M,,M,,*4A
$GPGSA,A,1,,,,,,,,,,,,,,,*1E
$GPGSV,2,1,08,26,,,31,08,,,28,31,,,34,28,,,21*7A
$GPGSV,2,2,08,04,,,24,16,,,26,03,,,33,27,,,29*7D
$GPRMC,143105.00,V,,,,,0.00,0.00,170826,,,N*75
$GPGGA,143106.00,,,,,0,00,,,M,,M,,*49
$GPGSA,A,1,,,,,,,,,,,,,,,*1E
$GPGSV,2,1,08,26,,,31,08,,,28,31,,,34,28,,,21*7A
$GPGSV,2,2,08,04,,,24,16,,,26,03,,,33,27,,,29*7D
$GPRMC,143106.00,V,,,,,0.00,0.00,170826,,,N*76
$GPGGA,143107.00,,,,,0,00,,,M,,M,,*48
$GPGSA,A,1,,,,,,,,,,,,,,,*1E
$GPGSV,2,1,08,26,,,31,08,,,28,31,,,34,28,,,21*7A
$GPGSV,2,2,08,04,,,24,16,,,26,03,,,33,27,,,29*7D
$GPRMC,143107.00,V,,,,,0.00,0.00,170826,,,N*77
$GPGGA,143108.00,,,,,0,00,,,M,,M,,*47
$GPGSA,A,1,,,,,,,,,,,,,,,*1E
$GPGSV,2,1,08,26,,,31,08,,,28,31,,,34,28,,,21*7A
$GPGSV,2,2,08,04,,,24,16,,,26,03,,,33,27,,,29*7D
$GPRMC,143108.00,V,,,,,0.00,0.00,170826,,,N*78
$GPGGA,143109.00,,,,,0,00,,,M,,M,,*46
$GPGSA,A,1,,,,,,,,,,,,,,,*1E
$GPGSV,2,1,08,26,,,31,08,,,28,31,,,34,28,,,21*7A
$GPGSV,2,2,08,04,,,24,16,,,26,03,,,33,27,,,29*7D
$GPRMC,143109.00,V,,,,,0.00,0.00,170826,,,N*79
$GPGGA,143110.00,,,,,0,00,,,M,,M,,*4E
$GPGSA,A,1,,,,,,,,,,,,,,,*1E
$GPGSV,2,1,08,26,,,31,08,,,28,31,,,34,28,,,21*7A
$GPGSV,2,2,08,04,,,24,16,,,26,03,,,33,27,,,29*7D
$GPRMC,143110.00,V,,,,,0.00,0.00,170826,,,N*71
$GPGGA,143111.00,,,,,0,00,,,M,,M,,*4F
$GPGSA,A,1,,,,,,,,,,,,,,,*1E
$GPGSV,2,1,08,26,,,31,08,,,28,31,,,34,28,,,21*7A
$GPGSV,2,2,08,04,,,24,16,,,26,03,,,33,27,,,29*7D
$GPRMC,143111.00,V,,,,,0.00,0.00,170826,,,N*70
$GPGGA,143112.00,,,,,0,00,,,M,,M,,*4C
$GPGSA,A,1,,,,,,,,,,,,,,,*1E
$GPGSV,2,1,08,26,,,31,08,,,28,31,,,34,28,,,21*7A
$GPGSV,2,2,08,04,,,24,16,,,26,03,,,33,27,,,29*7D
$GPRMC,143112.00,V,,,,,0.00,0.00,170826,,,N*73
$GPGGA,143113.00,,,,,0,00,,,M,,M,,*4D
$GPGSA,A,1,,,,,,,,,,,,,,,*1E
$GPGSV,2,1,08,26,,,31,08,,,28,31,,,34,28,,,21*7A
$GPGSV,2,2,08,04,,,24,16,,,26,03,,,33,27,,,29*7D
$GPRMC,143113.00,V,,,,,0.00,0.00,170826,,,N*72
$GPGGA,143114.00,,,,,0,00,,,M,,M,,*4A
$GPGSA,A,1,,,,,,,,,,,,,,,*1E
$GPGSV,2,1,08,26,,,31,08,,,28,31,,,34,28,,,21*7A
$GPGSV,2,2,08,04,,,24,16,,,26,03,,,33,27,,,29*7D
$GPRMC,143114.00,V,,,,,0.00,0.00,170826,,,N*75
$GPGGA,143115.00,,,,,0,00,,,M,,M,,*4B
$GPGSA,A,1,,,,,,,,,,,,,,,*1E
$GPGSV,2,1,08,26,,,31,08,,,28,31,,,34,28,,,21*7A
$GPGSV,2,2,08,04,,,24,16,,,26,03,,,33,27,,,29*7D
$GPRMC,143115.00,V,,,,,0.00,0.00,170826,,,N*74
$GPGGA,143116.00,,,,,0,00,,,M,,M,,*48
$GPGSA,A,1,,,,,,,,,,,,,,,*1E
$GPGSV,2,1,08,26,,,31,08,,,28,31,,,34,28,,,21*7A
$GPGSV,2,2,08,04,,,24,16,,,26,03,,,33,27,,,29*7D
$GPRMC,143116.00,V,,,,,0.00,0.00,170826,,,N*77
$GPGGA,143117.00,,,,,0,00,,,M,,M,,*49
$GPGSA,A,1,,,,,,,,,,,,,,,*1E
$GPGSV,2,1,08,26,,,31,08,,,28,31,,,34,28,,,21*7A
$GPGSV,2,2,08,04,,,24,16,,,26,03,,,33,27,,,29*7D
$GPRMC,143117.00,V,,,,,0.00,0.00,170826,,,N*76
$GPGGA,143118.00,,,,,0,00,,,M,,M,,*46
$GPGSA,A,1,,,,,,,,,,,,,,,*1E
$GPGSV,2,1,08,26,,,31,08,,,28,31,,,34,28,,,21*7A
$GPGSV,2,2,08,04,,,24,16,,,26,03,,,33,27,,,29*7D
$GPRMC,143118.00,V,,,,,0.00,0.00,170826,,,N*79
$GPGGA,143119.00,,,,,0,00,,,M,,M,,*47
$GPGSA,A,1,,,,,,,,,,,,,,,*1E
$GPGSV,2,1,08,26,,,31,08,,,28,31,,,34,28,,,21*7A
$GPGSV,2,2,08,04,,,24,16,,,26,03,,,33,27,,,29*7D
$GPRMC,143119.00,V,,,,,0.00,0.00,170826,,,N*78
$GPGGA,143120.00,,,,,0,00,,,M,,M,,*4D
$GPGSA,A,1,,,,,,,,,,,,,,,*1E
$GPGSV,2,1,08,26,,,31,08,,,28,31,,,34,28,,,21*7A
$GPGSV,2,2,08,04,,,24,16,,,26,03,,,33,27,,,29*7D
$GPRMC,143120.00,V,,,,,0.00,0.00,170826,,,N*72
$GPGGA,143121.00,,,,,0,00,,,M,,M,,*4C
$GPGSA,A,1,,,,,,,,,,,,,,,*1E
$GPGSV,2,1,08,26,,,31,08,,,28,31,,,34,28,,,21*7A
$GPGSV,2,2,08,04,,,24,16,,,26,03,,,33,27,,,29*7D
$GPRMC,143121.00,V,,,,,0.00,0.00,170826,,,N*73
$GPGGA,143122.00,,,,,0,00,,,M,,M,,*4F
$GPGSA,A,1,,,,,,,,,,,,,,,*1E
$GPGSV,2,1,08,26,,,31,08,,,28,31,,,34,28,,,21*7A
$GPGSV,2,2,08,04,,,24,16,,,26,03,,,33,27,,,29*7D
$GPRMC,143122.00,V,,,,,0.00,0.00,170826,,,N*70
$GPGGA,143123.00,,,,,0,00,,,M,,M,,*4E
$GPGSA,A,1,,,,,,,,,,,,,,,*1E
$GPGSV,2,1,08,26,,,31,08,,,28,31,,,34,28,,,21*7A
$GPGSV,2,2,08,04,,,24,16,,,26,03,,,33,27,,,29*7D
$GPRMC,143123.00,V,,,,,0.00,0.00,170826,,,N*71
$GPGGA,143124.00,,,,,0,00,,,M,,M,,*49
$GPGSA,A,1,,,,,,,,,,,,,,,*1E
$GPGSV,2,1,08,26,,,31,08,,,28,31,,,34,28,,,21*7A
$GPGSV,2,2,08,04,,,24,16,,,26,03,,,33,27,,,29*7D
$GPRMC,143124.00,V,,,,,0.00,0.00,170826,,,N*76
$GPGGA,143125.00,,,,,0,00,,,M,,M,,*48
$GPGSA,A,1,,,,,,,,,,,,,,,*1E
$GPGSV,2,1,08,26,,,31,08,,,28,31,,,34,28,,,21*7A
$GPGSV,2,2,08,04,,,24,16,,,26,03,,,33,27,,,29*7D
$GPRMC,143125.00,V,,,,,0.00,0.00,170826,,,N*77
$GPGGA,143126.00,,,,,0,00,,,M,,M,,*4B
$GPGSA,A,1,,,,,,,,,,,,,,,*1E
$GPGSV,2,1,08,26,,,31,08,,,28,31,,,34,28,,,21*7A
$GPGSV,2,2,08,04,,,24,16,,,26,03,,,33,27,,,29*7D
$GPRMC,143126.00,V,,,,,0.00,0.00,170826,,,N*74
$GPGGA,143127.00,,,,,0,00,,,M,,M,,*4A
$GPGSA,A,1,,,,,,,,,,,,,,,*1E
$GPGSV,2,1,08,26,,,31,08,,,28,31,,,34,28,,,21*7A
$GPGSV,2,2,08,04,,,24,16,,,26,03,,,33,27,,,29*7D
$GPRMC,143127.00,V,,,,,0.00,0.00,170826,,,N*75
$GPGGA,143128.00,,,,,0,00,,,M,,M,,*45
$GPGSA,A,1,,,,,,,,,,,,,,,*1E
$GPGSV,2,1,08,26,,,31,08,,,28,31,,,34,28,,,21*7A
$GPGSV,2,2,08,04,,,24,16,,,26,03,,,33,27,,,29*7D
$GPRMC,143128.00,V,,,,,0.00,0.00,170826,,,N*7A
$GPGGA,143129.00,,,,,0,00,,,M,,M,,*44
$GPGSA,A,1,,,,,,,,,,,,,,,*1E
$GPGSV,2,1,08,26,,,31,08,,,28,31,,,34,28,,,21*7A
$GPGSV,2,2,08,04,,,24,16,,,26,03,,,33,27,,,29*7D
$GPRMC,143129.00,V,,,,,0.00,0.00,170826,,,N*7B
$GPGGA,143130.00,,,,,0,00,,,M,,M,,*4C
$GPGSA,A,1,,,,,,,,,,,,,,,*1E
$GPGSV,2,1,08,26,,,31,08,,,28,31,,,34,28,,,21*7A
$GPGSV,2,2,08,04,,,24,16,,,26,03,,,33,27,,,29*7D
$GPRMC,143130.00,V,,,,,0.00,0.00,170826,,,N*73
$GPGGA,143131.00,,,,,0,00,,,M,,M,,*4D
$GPGSA,A,1,,,,,,,,,,,,,,,*1E
$GPGSV,2,1,08,26,,,31,08,,,28,31,,,34,28,,,21*7A
$GPGSV,2,2,08,04,,,24,16,,,26,03,,,33,27,,,29*7D
$GPRMC,143131.00,V,,,,,0.00,0.00,170826,,,N*72
$GPGGA,143132.00,,,,,0,00,,,M,,M,,*4E
$GPGSA,A,1,,,,,,,,,,,,,,,*1E
$GPGSV,2,1,08,26,,,31,08,,,28,31,,,34,28,,,21*7A
$GPGSV,2,2,08,04,,,24,16,,,26,03,,,33,27,,,29*7D
$GPRMC,143132.00,V,,,,,0.00,0.00,170826,,,N*71
$GPGGA,143133.00,,,,,0,00,,,M,,M,,*4F
$GPGSA,A,1,,,,,,,,,,,,,,,*1E
$GPGSV,2,1,08,26,,,31,08,,,28,31,,,34,28,,,21*7A
$GPGSV,2,2,08,04,,,24,16,,,26,03,,,33,27,,,29*7D
$GPRMC,143133.00,V,,,,,0.00,0.00,170826,,,N*70
$GPGGA,143134.00,,,,,0,00,,,M,,M,,*48
$GPGSA,A,1,,,,,,,,,,,,,,,*1E
$GPGSV,2,1,08,26,,,31,08,,,28,31,,,34,28,,,21*7A
$GPGSV,2,2,08,04,,,24,16,,,26,03,,,33,27,,,29*7D
$GPRMC,143134.00,V,,,,,0.00,0.00,170826,,,N*77
$GPGGA,143135.00,,,,,0,00,,,M,,M,,*49
$GPGSA,A,1,,,,,,,,,,,,,,,*1E
$GPGSV,2,1,08,26,,,31,08,,,28,31,,,34,28,,,21*7A
$GPGSV,2,2,08,04,,,24,16,,,26,03,,,33,27,,,29*7D
$GPRMC,143135.00,V,,,,,0.00,0.00,170826,,,N*76
$GPGGA,143136.00,,,,,0,00,,,M,,M,,*4A
$GPGSA,A,1,,,,,,,,,,,,,,,*1E
$GPGSV,2,1,08,26,,,31,08,,,28,31,,,34,28,,,21*7A
$GPGSV,2,2,08,04,,,24,16,,,26,03,,,33,27,,,29*7D
$GPRMC,143136.00,V,,,,,0.00,0.00,170826,,,N*75
$GPGGA,143137.00,,,,,0,00,,,M,,M,,*4B
$GPGSA,A,1,,,,,,,,,,,,,,,*1E
$GPGSV,2,1,08,26,,,31,08,,,28,31,,,34,28,,,21*7A
$GPGSV,2,2,08,04,,,24,16,,,26,03,,,33,27,,,29*7D
$GPRMC,143137.00,V,,,,,0.00,0.00,170826,,,N*74
$GPGGA,143138.00,,,,,0,00,,,M,,M,,*44
$GPGSA,A,1,,,,,,,,,,,,,,,*1E
$GPGSV,2,1,08,26,,,31,08,,,28,31,,,34,28,,,21*7A
$GPGSV,2,2,08,04,,,24,16,,,26,03,,,33,27,,,29*7D
$GPRMC,143138.00,V,,,,,0.00,0.00,170826,,,N*7B
$GPGGA,143139.00,,,,,0,00,,,M,,M,,*45
$GPGSA,A,1,,,,,,,,,,,,,,,*1E
$GPGSV,2,1,08,26,,,31,08,,,28,31,,,34,28,,,21*7A
$GPGSV,2,2,08,04,,,24,16,,,26,03,,,33,27,,,29*7D
$GPRMC,143139.00,V,,,,,0.00,0.00,170826,,,N*7A
$GPGGA,143140.00,,,,,0,00,,,M,,M,,*4B
$GPGSA,A,1,,,,,,,,,,,,,,,*1E
$GPGSV,2,1,08,26,,,31,08,,,28,31,,,34,28,,,21*7A
$GPGSV,2,2,08,04,,,24,16,,,26,03,,,33,27,,,29*7D
$GPRMC,143140.00,V,,,,,0.00,0.00,170826,,,N*74
$GPGGA,143141.00,,,,,0,00,,,M,,M,,*4A
$GPGSA,A,1,,,,,,,,,,,,,,,*1E
$GPGSV,2,1,08,26,,,31,08,,,28,31,,,34,28,,,21*7A
$GPGSV,2,2,08,04,,,24,16,,,26,03,,,33,27,,,29*7D
$GPRMC,143141.00,V,,,,,0.00,0.00,170826,,,N*75
$GPGGA,143142.00,,,,,0,00,,,M,,M,,*49
$GPGSA,A,1,,,,,,,,,,,,,,,*1E
$GPGSV,2,1,08,26,,,31,08,,,28,31,,,34,28,,,21*7A
$GPGSV,2,2,08,04,,,24,16,,,26,03,,,33,27,,,29*7D
$GPRMC,143142.00,V,,,,,0.00,0.00,170826,,,N*76
$GPGGA,143143.00,,,,,0,00,,,M,,M,,*48
$GPGSA,A,1,,,,,,,,,,,,,,,*1E
$GPGSV,2,1,08,26,,,31,08,,,28,31,,,34,28,,,21*7A
$GPGSV,2,2,08,04,,,24,16,,,26,03,,,33,27,,,29*7D
$GPRMC,143143.00,V,,,,,0.00,0.00,170826,,,N*77
$GPGGA,143144.00,,,,,0,00,,,M,,M,,*4F
$GPGSA,A,1,,,,,,,,,,,,,,,*1E
$GPGSV,2,1,08,26,,,31,08,,,28,31,,,34,28,,,21*7A
$GPGSV,2,2,08,04,,,24,16,,,26,03,,,33,27,,,29*7D
$GPRMC,143144.00,V,,,,,0.00,0.00,170826,,,N*70
$GPGGA,143145.00,,,,,0,00,,,M,,M,,*4E
$GPGSA,A,1,,,,,,,,,,,,,,,*1E
$GPGSV,2,1,08,26,,,31,08,,,28,31,,,34,28,,,21*7A
$GPGSV,2,2,08,04,,,24,16,,,26,03,,,33,27,,,29*7D
$GPRMC,143145.00,V,,,,,0.00,0.00,170826,,,N*71
$GPGGA,143146.00,,,,,0,00,,,M,,M,,*4D
$GPGSA,A,1,,,,,,,,,,,,,,,*1E
$GPGSV,2,1,08,26,,,31,08,,,28,31,,,34,28,,,21*7A
$GPGSV,2,2,08,04,,,24,16,,,26,03,,,33,27,,,29*7D
$GPRMC,143146.00,V,,,,,0.00,0.00,170826,,,N*72
$GPGGA,143147.00,,,,,0,00,,,M,,M,,*4C
$GPGSA,A,1,,,,,,,,,,,,,,,*1E
$GPGSV,2,1,08,26,,,31,08,,,28,31,,,34,28,,,21*7A
$GPGSV,2,2,08,04,,,24,16,,,26,03,,,33,27,,,29*7D
$GPRMC,143147.00,V,,,,,0.00,0.00,170826,,,N*73
$GPGGA,143148.00,,,,,0,00,,,M,,M,,*43
$GPGSA,A,1,,,,,,,,,,,,,,,*1E
$GPGSV,2,1,08,26,,,31,08,,,28,31,,,34,28,,,21*7A
$GPGSV,2,2,08,04,,,24,16,,,26,03,,,33,27,,,29*7D
$GPRMC,143148.00,V,,,,,0.00,0.00,170826,,,N*7C
$GPGGA,143149.00,,,,,0,00,,,M,,M,,*42
$GPGSA,A,1,,,,,,,,,,,,,,,*1E
$GPGSV,2,1,08,26,,,31,08,,,28,31,,,34,28,,,21*7A
$GPGSV,2,2,08,04,,,24,16,,,26,03,,,33,27,,,29*7D
$GPRMC,143149.00,V,,,,,0.00,0.00,170826,,,N*7D
$GPGGA,143150.00,,,,,0,00,,,M,,M,,*4A
$GPGSA,A,1,,,,,,,,,,,,,,,*1E
$GPGSV,2,1,08,26,,,31,08,,,28,31,,,34,28,,,21*7A
$GPGSV,2,2,08,04,,,24,16,,,26,03,,,33,27,,,29*7D
$GPRMC,143150.00,V,,,,,0.00,0.00,170826,,,N*75
$GPGGA,143151.00,,,,,0,00,,,M,,M,,*4B
$GPGSA,A,1,,,,,,,,,,,,,,,*1E
$GPGSV,2,1,08,26,,,31,08,,,28,31,,,34,28,,,21*7A
$GPGSV,2,2,08,04,,,24,16,,,26,03,,,33,27,,,29*7D
$GPRMC,143151.00,V,,,,,0.00,0.00,170826,,,N*74
$GPGGA,143152.00,,,,,0,00,,,M,,M,,*48
$GPGSA,A,1,,,,,,,,,,,,,,,*1E
$GPGSV,2,1,08,26,,,31,08,,,28,31,,,34,28,,,21*7A
$GPGSV,2,2,08,04,,,24,16,,,26,03,,,33,27,,,29*7D
$GPRMC,143152.00,V,,,,,0.00,0.00,170826,,,N*77
$GPGGA,143153.00,,,,,0,00,,,M,,M,,*49
$GPGSA,A,1,,,,,,,,,,,,,,,*1E
$GPGSV,2,1,08,26,,,31,08,,,28,31,,,34,28,,,21*7A
$GPGSV,2,2,08,04,,,24,16,,,26,03,,,33,27,,,29*7D
$GPRMC,143153.00,V,,,,,0.00,0.00,170826,,,N*76
$GPGGA,143154.00,,,,,0,00,,,M,,M,,*4E
$GPGSA,A,1,,,,,,,,,,,,,,,*1E
$GPGSV,2,1,08,26,,,31,08,,,28,31,,,34,28,,,21*7A
$GPGSV,2,2,08,04,,,24,16,,,26,03,,,33,27,,,29*7D
$GPRMC,143154.00,V,,,,,0.00,0.00,170826,,,N*71
$GPGGA,143155.00,,,,,0,00,,,M,,M,,*4F
$GPGSA,A,1,,,,,,,,,,,,,,,*1E
$GPGSV,2,1,08,26,,,31,08,,,28,31,,,34,28,,,21*7A
$GPGSV,2,2,08,04,,,24,16,,,26,03,,,33,27,,,29*7D
$GPRMC,143155.00,V,,,,,0.00,0.00,170826,,,N*70
$GPGGA,143156.00,,,,,0,00,,,M,,M,,*4C
$GPGSA,A,1,,,,,,,,,,,,,,,*1E
$GPGSV,2,1,08,26,,,31,08,,,28,31,,,34,28,,,21*7A
$GPGSV,2,2,08,04,,,24,16,,,26,03,,,33,27,,,29*7D
$GPRMC,143156.00,V,,,,,0.00,0.00,170826,,,N*73
$GPGGA,143157.00,,,,,0,00,,,M,,M,,*4D
$GPGSA,A,1,,,,,,,,,,,,,,,*1E
$GPGSV,2,1,08,26,,,31,08,,,28,31,,,34,28,,,21*7A
$GPGSV,2,2,08,04,,,24,16,,,26,03,,,33,27,,,29*7D
$GPRMC,143157.00,V,,,,,0.00,0.00,170826,,,N*72
$GPGGA,143158.00,,,,,0,00,,,M,,M,,*42
$GPGSA,A,1,,,,,,,,,,,,,,,*1E
$GPGSV,2,1,08,26,,,31,08,,,28,31,,,34,28,,,21*7A
$GPGSV,2,2,08,04,,,24,16,,,26,03,,,33,27,,,29*7D
$GPRMC,143158.00,V,,,,,0.00,0.00,170826,,,N*7D
$GPGGA,143159.00,,,,,0,00,,,M,,M,,*43
$GPGSA,A,1,,,,,,,,,,,,,,,*1E
$GPGSV,2,1,08,26,,,31,08,,,28,31,,,34,28,,,21*7A
$GPGSV,2,2,08,04,,,24,16,,,26,03,,,33,27,,,29*7D
$GPRMC,143159.00,V,,,,,0.00,0.00,170826,,,N*7C
